{
"type": "FeatureCollection",
"name": "overall_boundary",
"crs": { "type": "name", "properties": { "name": "urn:ogc:def:crs:OGC:1.3:CRS84" } },
"features": [
{ "type": "Feature", "properties": { "id": "way/550428753", "@id": "way/550428753", "amenity": "university", "name": "Federal Polytechnic Ilaro", "short_name": "FPI", "website": "https://federalpolyilaro.edu.ng/", "wikidata": "Q18354913", "wikipedia": "en:Federal Polytechnic, Ilaro" }, "geometry": { "type": "Polygon", "coordinates": [ [ [ 2.994389071847277, 6.899044553502248 ], [ 2.970234170225086, 6.899324340007523 ], [ 2.970171995446135, 6.88626763642796 ], [ 2.994295809678852, 6.885987849922684 ], [ 2.994389071847277, 6.899044553502248 ] ] ] } }
]
}
