{
"type": "FeatureCollection",
"name": "path",
"crs": { "type": "name", "properties": { "name": "urn:ogc:def:crs:OGC:1.3:CRS84" } },
"features": [
{ "type": "Feature", "properties": { "id": "way/248912526", "@id": "way/248912526", "crossing": null, "footway": null, "highway": "primary", "junction": null, "lanes": "2", "maxspeed": "80", "name": "Oja Odan Road, Ilaro", "oneway": "no", "ref": "F105", "surface": "paved" }, "geometry": { "type": "LineString", "coordinates": [ [ 2.9033762, 6.893844 ], [ 2.9057815, 6.8940064 ], [ 2.9063772, 6.8940376 ], [ 2.9069083, 6.8940589 ], [ 2.9073694, 6.8940655 ], [ 2.9078307, 6.8940549 ], [ 2.9082438, 6.8940389 ], [ 2.9086893, 6.8940056 ], [ 2.9091775, 6.8939577 ], [ 2.90973, 6.8938885 ], [ 2.9102501, 6.8938152 ], [ 2.9108723, 6.8937087 ], [ 2.9115861, 6.8935742 ], [ 2.9149215, 6.8929297 ], [ 2.9166327, 6.8926049 ], [ 2.9235354, 6.8913653 ], [ 2.9306406, 6.8900698 ], [ 2.93192, 6.8898448 ], [ 2.934047, 6.8894427 ], [ 2.9358783, 6.8891156 ], [ 2.9397383, 6.8883958 ], [ 2.9413308, 6.8880882 ], [ 2.9428445, 6.8877959 ], [ 2.9432091, 6.887728 ], [ 2.9435953, 6.8876641 ], [ 2.943955, 6.8876095 ], [ 2.944298, 6.8875629 ], [ 2.9447006, 6.8875136 ], [ 2.9450973, 6.8874692 ], [ 2.9455107, 6.8874391 ], [ 2.9460522, 6.8874084 ], [ 2.9478174, 6.8873512 ], [ 2.9488796, 6.8873231 ], [ 2.9504993, 6.88727 ], [ 2.951132, 6.8872479 ], [ 2.951974, 6.8872197 ], [ 2.9537357, 6.8871624 ], [ 2.9557075, 6.8871204 ], [ 2.9579414, 6.8870409 ], [ 2.9604552, 6.8869576 ], [ 2.9611449, 6.8869284 ], [ 2.9631638, 6.8868756 ], [ 2.9641452, 6.8868468 ], [ 2.9664989, 6.8867723 ], [ 2.9670252, 6.8867505 ], [ 2.9674503, 6.886719 ], [ 2.9684715, 6.8866127 ], [ 2.968789, 6.8865824 ], [ 2.9692117, 6.8865497 ], [ 2.9696358, 6.8865228 ], [ 2.9703586, 6.8864972 ], [ 2.9721317, 6.886487 ], [ 2.974809, 6.8864956 ], [ 2.9752907, 6.8864914 ], [ 2.975789, 6.8864751 ], [ 2.9780889, 6.8864324 ], [ 2.9802091, 6.8863337 ], [ 2.9814953, 6.8863007 ], [ 2.9823181, 6.8862818 ], [ 2.9832132, 6.8862487 ], [ 2.9852599, 6.8861962 ], [ 2.9865593, 6.8861546 ], [ 2.9872787, 6.8861316 ], [ 2.987446, 6.8861262 ], [ 2.990835, 6.8860174 ], [ 2.9917552, 6.8859879 ], [ 2.9929129, 6.8859509 ], [ 2.9935758, 6.8859286 ] ] } },
{ "type": "Feature", "properties": { "id": "way/248912532", "@id": "way/248912532", "crossing": null, "footway": null, "highway": "residential", "junction": null, "lanes": null, "maxspeed": null, "name": null, "oneway": null, "ref": null, "surface": "asphalt" }, "geometry": { "type": "LineString", "coordinates": [ [ 2.9827064, 6.8922509 ], [ 2.9823682, 6.8871811 ], [ 2.9823181, 6.8862818 ] ] } },
{ "type": "Feature", "properties": { "id": "way/248912536", "@id": "way/248912536", "crossing": null, "footway": null, "highway": "residential", "junction": null, "lanes": null, "maxspeed": null, "name": null, "oneway": null, "ref": null, "surface": null }, "geometry": { "type": "LineString", "coordinates": [ [ 2.9826238, 6.8923393 ], [ 2.9825668, 6.8923346 ], [ 2.9816562, 6.8923066 ], [ 2.9814497, 6.8923306 ], [ 2.9812404, 6.8923785 ], [ 2.9810178, 6.8924824 ], [ 2.9806584, 6.8928419 ], [ 2.9801434, 6.8932573 ], [ 2.9799396, 6.8933531 ], [ 2.9771018, 6.8933571 ], [ 2.9749869, 6.8933518 ], [ 2.9725957, 6.8933331 ], [ 2.9703634, 6.8932918 ] ] } },
{ "type": "Feature", "properties": { "id": "way/285484275", "@id": "way/285484275", "crossing": null, "footway": null, "highway": "secondary", "junction": null, "lanes": null, "maxspeed": null, "name": null, "oneway": "no", "ref": null, "surface": null }, "geometry": { "type": "LineString", "coordinates": [ [ 2.994548, 6.8861856 ], [ 2.9948644, 6.8867534 ], [ 2.9957364, 6.8884392 ], [ 2.9959926, 6.8889594 ], [ 2.9963202, 6.8895864 ], [ 2.9965387, 6.8900045 ], [ 2.9966427, 6.8902037 ], [ 2.9972747, 6.8914132 ], [ 2.9976973, 6.8922303 ], [ 2.9982644, 6.8933345 ], [ 2.9988536, 6.8944792 ], [ 2.99901, 6.8947567 ], [ 2.9991602, 6.894991 ], [ 2.9992227, 6.8950719 ], [ 2.9993203, 6.8951982 ], [ 2.9993471, 6.8952299 ], [ 2.9995142, 6.8954277 ], [ 2.9997288, 6.8956567 ], [ 2.999938, 6.8958431 ], [ 3.0002276, 6.8960801 ], [ 3.0004423, 6.8962052 ], [ 3.0006871, 6.896354 ], [ 3.0007319, 6.8963812 ], [ 3.0010101, 6.8965245 ], [ 3.0012791, 6.8966366 ], [ 3.0015626, 6.8967375 ], [ 3.001896, 6.89684 ], [ 3.0028991, 6.8971332 ], [ 3.0034646, 6.8973246 ], [ 3.0048151, 6.8977185 ], [ 3.0057766, 6.8980094 ], [ 3.0066679, 6.8982721 ], [ 3.0077392, 6.8985805 ], [ 3.0081992, 6.8987242 ], [ 3.0088448, 6.8989674 ], [ 3.0090809, 6.8990565 ], [ 3.0095658, 6.8992767 ], [ 3.009834, 6.8994059 ], [ 3.010253, 6.8996077 ], [ 3.0107363, 6.8998418 ], [ 3.0112448, 6.9000836 ], [ 3.0114439, 6.9001643 ], [ 3.011678, 6.9002367 ], [ 3.0118912, 6.9003073 ], [ 3.0121024, 6.900352 ], [ 3.0123746, 6.900396 ], [ 3.012624, 6.9004265 ], [ 3.0129373, 6.9004643 ], [ 3.0132249, 6.9004692 ], [ 3.0135394, 6.9004577 ], [ 3.0137956, 6.9004351 ], [ 3.0140411, 6.9003952 ], [ 3.0143133, 6.9003259 ], [ 3.0145667, 6.9002526 ], [ 3.0170164, 6.8993891 ], [ 3.0199726, 6.8983515 ], [ 3.0200283, 6.8983321 ], [ 3.0213063, 6.8978781 ] ] } },
{ "type": "Feature", "properties": { "id": "way/387686788", "@id": "way/387686788", "crossing": null, "footway": null, "highway": "unclassified", "junction": null, "lanes": null, "maxspeed": null, "name": null, "oneway": null, "ref": null, "surface": null }, "geometry": { "type": "LineString", "coordinates": [ [ 2.9768912, 6.9264442 ], [ 2.9770187, 6.9262178 ], [ 2.9771086, 6.9260047 ], [ 2.9771514, 6.9257945 ], [ 2.9771554, 6.9255362 ], [ 2.97713, 6.9252393 ], [ 2.9771058, 6.9249438 ], [ 2.9770602, 6.9245084 ], [ 2.9770468, 6.9241104 ], [ 2.9770634, 6.9237856 ], [ 2.977181, 6.9233634 ], [ 2.9776503, 6.9223384 ], [ 2.9780339, 6.9216101 ], [ 2.978349, 6.9211442 ], [ 2.9787607, 6.9206476 ], [ 2.9789753, 6.9203946 ], [ 2.9791268, 6.9201741 ], [ 2.9793711, 6.9198147 ], [ 2.9797237, 6.9191298 ], [ 2.9799356, 6.9186785 ], [ 2.9802218, 6.917964 ], [ 2.9804752, 6.9172722 ], [ 2.9808133, 6.9164073 ], [ 2.9809461, 6.9160598 ], [ 2.9811157, 6.9156171 ], [ 2.9814329, 6.9151538 ], [ 2.9817259, 6.9147537 ], [ 2.9819439, 6.9144022 ], [ 2.98208, 6.9140394 ], [ 2.9822523, 6.9135568 ], [ 2.9824481, 6.913192 ], [ 2.9826298, 6.9129058 ], [ 2.9830107, 6.9124917 ], [ 2.9833426, 6.9122022 ], [ 2.9835358, 6.9119838 ], [ 2.983641, 6.9117848 ], [ 2.9836974, 6.9115531 ], [ 2.9836893, 6.9112895 ], [ 2.9835981, 6.9108395 ], [ 2.9835337, 6.9104268 ], [ 2.9836705, 6.9097771 ], [ 2.9837984, 6.9091313 ], [ 2.9838923, 6.9085586 ], [ 2.9839924, 6.9080756 ], [ 2.9842687, 6.9070904 ], [ 2.9846951, 6.905759 ], [ 2.9848266, 6.9054368 ], [ 2.9850237, 6.905124 ], [ 2.9852638, 6.9048417 ], [ 2.9855025, 6.9046061 ], [ 2.9861113, 6.9040469 ], [ 2.9869455, 6.9033146 ], [ 2.9875007, 6.9028846 ], [ 2.9879339, 6.9025744 ], [ 2.9881418, 6.902384 ], [ 2.9882933, 6.9022029 ], [ 2.9898081, 6.9002248 ], [ 2.9905322, 6.8992954 ], [ 2.9921551, 6.8969693 ], [ 2.9924563, 6.8966829 ], [ 2.9925494, 6.8965988 ], [ 2.9935866, 6.8957928 ], [ 2.9945971, 6.8951511 ], [ 2.9948009, 6.8950217 ], [ 2.9960238, 6.8937092 ], [ 2.9961567, 6.8935666 ], [ 2.9967812, 6.8931348 ], [ 2.9969609, 6.8929963 ], [ 2.9970994, 6.8928581 ], [ 2.9976973, 6.8922303 ], [ 2.9987594, 6.8912277 ], [ 2.9988921, 6.8910577 ], [ 2.9991276, 6.8907831 ], [ 2.9992949, 6.89043 ], [ 2.9993487, 6.8900036 ], [ 2.9993668, 6.8896331 ], [ 2.9994377, 6.8891463 ], [ 2.9995465, 6.8885347 ], [ 2.9995968, 6.8883019 ], [ 2.9996163, 6.8881073 ], [ 2.9996297, 6.8878624 ], [ 2.9996253, 6.887411 ], [ 2.9996109, 6.8868931 ], [ 2.9996508, 6.8864529 ], [ 2.9997343, 6.8861049 ], [ 2.9998069, 6.8857483 ] ] } },
{ "type": "Feature", "properties": { "id": "way/456650037", "@id": "way/456650037", "crossing": "zebra", "footway": "crossing", "highway": "footway", "junction": null, "lanes": null, "maxspeed": null, "name": null, "oneway": null, "ref": null, "surface": null }, "geometry": { "type": "LineString", "coordinates": [ [ 2.9831029, 6.8951751 ], [ 2.9831044, 6.8950916 ] ] } },
{ "type": "Feature", "properties": { "id": "way/456650038", "@id": "way/456650038", "crossing": "zebra", "footway": "crossing", "highway": "footway", "junction": null, "lanes": null, "maxspeed": null, "name": null, "oneway": null, "ref": null, "surface": null }, "geometry": { "type": "LineString", "coordinates": [ [ 2.9831918, 6.8951757 ], [ 2.9831933, 6.8950921 ] ] } },
{ "type": "Feature", "properties": { "id": "way/456650039", "@id": "way/456650039", "crossing": "zebra", "footway": "crossing", "highway": "footway", "junction": null, "lanes": null, "maxspeed": null, "name": null, "oneway": null, "ref": null, "surface": null }, "geometry": { "type": "LineString", "coordinates": [ [ 2.9833448, 6.8951766 ], [ 2.9833435, 6.8950929 ] ] } },
{ "type": "Feature", "properties": { "id": "way/456650040", "@id": "way/456650040", "crossing": "zebra", "footway": "crossing", "highway": "footway", "junction": null, "lanes": null, "maxspeed": null, "name": null, "oneway": null, "ref": null, "surface": null }, "geometry": { "type": "LineString", "coordinates": [ [ 2.9834425, 6.8951772 ], [ 2.983442, 6.8950935 ] ] } },
{ "type": "Feature", "properties": { "id": "way/456650045", "@id": "way/456650045", "crossing": "zebra", "footway": "crossing", "highway": "footway", "junction": null, "lanes": null, "maxspeed": null, "name": "walkway", "oneway": null, "ref": null, "surface": null }, "geometry": { "type": "LineString", "coordinates": [ [ 2.9807509, 6.8966617 ], [ 2.9812753, 6.8965858 ], [ 2.9816025, 6.8965671 ], [ 2.9819003, 6.8965611 ], [ 2.9819358, 6.8965492 ], [ 2.9819569, 6.8965274 ], [ 2.9819588, 6.8954097 ], [ 2.9819581, 6.8952776 ], [ 2.981957, 6.8952439 ] ] } },
{ "type": "Feature", "properties": { "id": "way/456650059", "@id": "way/456650059", "crossing": "zebra", "footway": "crossing", "highway": "footway", "junction": null, "lanes": null, "maxspeed": null, "name": null, "oneway": null, "ref": null, "surface": null }, "geometry": { "type": "LineString", "coordinates": [ [ 2.9825534, 6.8940468 ], [ 2.9822669, 6.8940485 ] ] } },
{ "type": "Feature", "properties": { "id": "way/528612430", "@id": "way/528612430", "crossing": null, "footway": null, "highway": "residential", "junction": null, "lanes": null, "maxspeed": null, "name": null, "oneway": null, "ref": null, "surface": null }, "geometry": { "type": "LineString", "coordinates": [ [ 2.9799396, 6.8933531 ], [ 2.9800268, 6.8933811 ], [ 2.980071, 6.8934157 ], [ 2.9800925, 6.8934876 ], [ 2.9800884, 6.8939829 ], [ 2.9801193, 6.8940654 ], [ 2.980185, 6.894124 ], [ 2.9802722, 6.8941506 ], [ 2.9805592, 6.8941506 ], [ 2.9806423, 6.8941733 ], [ 2.9807, 6.8942438 ], [ 2.9807188, 6.8943397 ], [ 2.9807248, 6.8955945 ] ] } },
{ "type": "Feature", "properties": { "id": "way/528612431", "@id": "way/528612431", "crossing": null, "footway": null, "highway": "residential", "junction": null, "lanes": null, "maxspeed": null, "name": null, "oneway": null, "ref": null, "surface": "asphalt" }, "geometry": { "type": "LineString", "coordinates": [ [ 2.9827954, 6.892333 ], [ 2.9847005, 6.8923279 ], [ 2.9850733, 6.8923279 ], [ 2.9857653, 6.8922986 ], [ 2.9876456, 6.8922107 ], [ 2.9884154, 6.8922267 ], [ 2.9890413, 6.8923233 ], [ 2.9891737, 6.8923343 ], [ 2.9892271, 6.8923187 ], [ 2.9892509, 6.8913159 ], [ 2.9892895, 6.8912337 ], [ 2.9894163, 6.8911954 ], [ 2.9897693, 6.8911571 ], [ 2.989841, 6.8911023 ], [ 2.9898631, 6.8909819 ], [ 2.9897888, 6.8893389 ], [ 2.989782, 6.889189 ] ] } },
{ "type": "Feature", "properties": { "id": "way/528612432", "@id": "way/528612432", "crossing": null, "footway": null, "highway": "residential", "junction": null, "lanes": null, "maxspeed": null, "name": null, "oneway": null, "ref": null, "surface": null }, "geometry": { "type": "LineString", "coordinates": [ [ 2.9842848, 6.8884455 ], [ 2.9847322, 6.8896758 ], [ 2.9850733, 6.8923279 ], [ 2.9850612, 6.8932772 ], [ 2.9850519, 6.8942931 ], [ 2.9850411, 6.8948576 ], [ 2.984958, 6.8950493 ], [ 2.9847783, 6.8952331 ], [ 2.9844913, 6.8954141 ], [ 2.9842928, 6.8954647 ], [ 2.9837671, 6.8954967 ], [ 2.9836953, 6.8955193 ], [ 2.9836504, 6.8955819 ], [ 2.9836303, 6.8956877 ], [ 2.9836021, 6.8961863 ], [ 2.9835056, 6.8964966 ], [ 2.9833916, 6.8966776 ], [ 2.9831931, 6.8969266 ], [ 2.9828739, 6.8972355 ], [ 2.9826392, 6.8974232 ], [ 2.9823871, 6.8975337 ], [ 2.9820827, 6.8975856 ], [ 2.981793, 6.8975604 ], [ 2.9815918, 6.8975138 ], [ 2.9813477, 6.8973913 ], [ 2.9811278, 6.8972342 ], [ 2.980991, 6.897089 ], [ 2.9808569, 6.896892 ], [ 2.9807509, 6.8966617 ], [ 2.9807094, 6.8964526 ], [ 2.9807027, 6.8963368 ], [ 2.9807248, 6.8955945 ] ] } },
{ "type": "Feature", "properties": { "id": "way/528612433", "@id": "way/528612433", "crossing": null, "footway": null, "highway": "residential", "junction": "roundabout", "lanes": null, "maxspeed": null, "name": null, "oneway": "yes", "ref": null, "surface": null }, "geometry": { "type": "LineString", "coordinates": [ [ 2.9826275, 6.8923612 ], [ 2.9826238, 6.8923393 ], [ 2.9826259, 6.8923171 ], [ 2.9826337, 6.8922962 ], [ 2.9826467, 6.8922781 ], [ 2.9826639, 6.8922639 ], [ 2.9826843, 6.8922546 ], [ 2.9827064, 6.8922509 ], [ 2.9827288, 6.892253 ], [ 2.9827498, 6.8922608 ], [ 2.982768, 6.8922736 ], [ 2.9827823, 6.8922908 ], [ 2.9827917, 6.892311 ], [ 2.9827954, 6.892333 ], [ 2.9827933, 6.8923551 ], [ 2.9827855, 6.892376 ], [ 2.9827725, 6.8923942 ], [ 2.9827552, 6.8924083 ], [ 2.9827349, 6.8924176 ], [ 2.9827128, 6.8924213 ], [ 2.9826904, 6.8924192 ], [ 2.9826694, 6.8924115 ], [ 2.9826511, 6.8923986 ], [ 2.9826368, 6.8923814 ], [ 2.9826275, 6.8923612 ] ] } },
{ "type": "Feature", "properties": { "id": "way/550429831", "@id": "way/550429831", "crossing": null, "footway": null, "highway": "residential", "junction": null, "lanes": null, "maxspeed": null, "name": null, "oneway": null, "ref": null, "surface": "asphalt" }, "geometry": { "type": "LineString", "coordinates": [ [ 2.9847322, 6.8896758 ], [ 2.9851556, 6.8896111 ], [ 2.9858004, 6.889359 ], [ 2.9864177, 6.8892184 ], [ 2.9865104, 6.8891973 ], [ 2.9876047, 6.8891714 ], [ 2.9879245, 6.889176 ], [ 2.9885035, 6.8891844 ], [ 2.9887028, 6.8891797 ], [ 2.989782, 6.889189 ], [ 2.9899268, 6.8891819 ], [ 2.9917081, 6.8891311 ], [ 2.992342, 6.8890929 ], [ 2.9928741, 6.8890744 ], [ 2.9930695, 6.8890486 ], [ 2.9931606, 6.8890033 ], [ 2.9931997, 6.8888934 ], [ 2.9930817, 6.8876829 ], [ 2.9929643, 6.8864779 ], [ 2.9929129, 6.8859509 ] ] } },
{ "type": "Feature", "properties": { "id": "way/550429832", "@id": "way/550429832", "crossing": null, "footway": null, "highway": "residential", "junction": null, "lanes": null, "maxspeed": null, "name": null, "oneway": null, "ref": null, "surface": null }, "geometry": { "type": "LineString", "coordinates": [ [ 2.9850612, 6.8932772 ], [ 2.9861355, 6.8932634 ], [ 2.9872172, 6.893252 ], [ 2.9889987, 6.8932467 ], [ 2.9891596, 6.8932226 ], [ 2.9891987, 6.8931191 ], [ 2.9892182, 6.8925436 ], [ 2.9892271, 6.8923187 ] ] } },
{ "type": "Feature", "properties": { "id": "way/558979951", "@id": "way/558979951", "crossing": null, "footway": null, "highway": "residential", "junction": null, "lanes": null, "maxspeed": null, "name": null, "oneway": null, "ref": null, "surface": null }, "geometry": { "type": "LineString", "coordinates": [ [ 2.9923877, 6.8895985 ], [ 2.9930261, 6.8895639 ], [ 2.9931012, 6.8895293 ], [ 2.993187, 6.8893962 ], [ 2.9933587, 6.8891139 ], [ 2.9934338, 6.8890393 ], [ 2.9935303, 6.889018 ], [ 2.9937637, 6.8889887 ], [ 2.9939461, 6.8889887 ], [ 2.99404, 6.8889861 ], [ 2.9941016, 6.8889541 ], [ 2.9941311, 6.8888716 ], [ 2.9940963, 6.888118 ], [ 2.9940534, 6.8874496 ], [ 2.994048, 6.8872259 ], [ 2.9940131, 6.887146 ], [ 2.9939166, 6.8870928 ], [ 2.9937556, 6.8870102 ], [ 2.9936296, 6.8868877 ], [ 2.993584, 6.8867306 ], [ 2.9935384, 6.8866002 ], [ 2.9934821, 6.8865096 ], [ 2.9934096, 6.8864803 ], [ 2.9929643, 6.8864779 ] ] } },
{ "type": "Feature", "properties": { "id": "way/558979956", "@id": "way/558979956", "crossing": null, "footway": null, "highway": "residential", "junction": null, "lanes": null, "maxspeed": null, "name": null, "oneway": null, "ref": null, "surface": null }, "geometry": { "type": "LineString", "coordinates": [ [ 2.9925494, 6.8965988 ], [ 2.9924655, 6.8965432 ], [ 2.9924427, 6.8964686 ], [ 2.9924186, 6.8962183 ], [ 2.9924239, 6.8955792 ], [ 2.9924172, 6.8949801 ], [ 2.9924038, 6.8943197 ], [ 2.9923971, 6.8937858 ], [ 2.9923931, 6.8929923 ], [ 2.9924145, 6.8922667 ], [ 2.9924145, 6.8918566 ], [ 2.9924145, 6.8918127 ], [ 2.9924293, 6.8917661 ], [ 2.9924601, 6.8917235 ], [ 2.9924749, 6.8916915 ], [ 2.9924776, 6.8916396 ], [ 2.9924481, 6.8915198 ], [ 2.9923783, 6.8911776 ], [ 2.9923622, 6.8910271 ], [ 2.9923663, 6.8907835 ], [ 2.992381, 6.8900592 ], [ 2.9923877, 6.8895985 ], [ 2.992342, 6.8890929 ] ] } },
{ "type": "Feature", "properties": { "id": "way/558979960", "@id": "way/558979960", "crossing": null, "footway": null, "highway": "primary_link", "junction": null, "lanes": null, "maxspeed": null, "name": null, "oneway": "yes", "ref": null, "surface": null }, "geometry": { "type": "LineString", "coordinates": [ [ 2.9944728, 6.8860687 ], [ 2.9943491, 6.8859904 ], [ 2.9942847, 6.8859597 ], [ 2.994199, 6.8859247 ] ] } },
{ "type": "Feature", "properties": { "id": "way/558979964", "@id": "way/558979964", "crossing": null, "footway": null, "highway": "primary_link", "junction": null, "lanes": null, "maxspeed": null, "name": null, "oneway": "yes", "ref": null, "surface": null }, "geometry": { "type": "LineString", "coordinates": [ [ 2.9946919, 6.8859054 ], [ 2.9946086, 6.8859584 ], [ 2.9945711, 6.8860017 ], [ 2.9945329, 6.8860605 ] ] } },
{ "type": "Feature", "properties": { "id": "way/559011532", "@id": "way/559011532", "crossing": null, "footway": null, "highway": "residential", "junction": null, "lanes": null, "maxspeed": null, "name": null, "oneway": null, "ref": null, "surface": null }, "geometry": { "type": "LineString", "coordinates": [ [ 2.990835, 6.8860174 ], [ 2.9908696, 6.8854738 ], [ 2.9909142, 6.885076 ], [ 2.9909795, 6.8844938 ], [ 2.9909903, 6.8843767 ], [ 2.9909822, 6.8842702 ], [ 2.99095, 6.8835245 ], [ 2.9909795, 6.8834633 ], [ 2.9910064, 6.8834393 ], [ 2.9917376, 6.8833646 ] ] } },
{ "type": "Feature", "properties": { "id": "way/559011534", "@id": "way/559011534", "crossing": null, "footway": null, "highway": "residential", "junction": null, "lanes": null, "maxspeed": null, "name": null, "oneway": null, "ref": null, "surface": null }, "geometry": { "type": "LineString", "coordinates": [ [ 2.9917552, 6.8859879 ], [ 2.9917333, 6.8851356 ], [ 2.991744, 6.8841204 ], [ 2.9917376, 6.8833646 ], [ 2.9917359, 6.8831757 ], [ 2.9917333, 6.8829866 ], [ 2.9917628, 6.8829414 ], [ 2.9918191, 6.8829121 ], [ 2.9919022, 6.8829121 ], [ 2.9920605, 6.882944 ], [ 2.9922187, 6.882944 ], [ 2.9925299, 6.8829094 ], [ 2.9930824, 6.8828402 ], [ 2.9936483, 6.8827124 ], [ 2.994338, 6.8825306 ], [ 2.9946864, 6.8824794 ], [ 2.9953784, 6.8823555 ], [ 2.9962177, 6.8822279 ] ] } },
{ "type": "Feature", "properties": { "id": "way/559011538", "@id": "way/559011538", "crossing": null, "footway": null, "highway": "residential", "junction": null, "lanes": null, "maxspeed": null, "name": null, "oneway": null, "ref": null, "surface": null }, "geometry": { "type": "LineString", "coordinates": [ [ 2.9948644, 6.8867534 ], [ 2.9953583, 6.8867306 ], [ 2.9960423, 6.886708 ], [ 2.9966511, 6.886712 ], [ 2.997154, 6.8866947 ], [ 2.9976475, 6.8867253 ], [ 2.9982403, 6.8866534 ] ] } },
{ "type": "Feature", "properties": { "id": "way/559586929", "@id": "way/559586929", "crossing": null, "footway": null, "highway": "unclassified", "junction": null, "lanes": null, "maxspeed": null, "name": null, "oneway": null, "ref": null, "surface": null }, "geometry": { "type": "LineString", "coordinates": [ [ 2.999348, 6.9007823 ], [ 2.9991308, 6.9008915 ], [ 2.9988599, 6.900998 ], [ 2.9985809, 6.9010699 ], [ 2.9983342, 6.9010859 ], [ 2.9982001, 6.9011098 ], [ 2.9981008, 6.9011285 ], [ 2.997956, 6.9011391 ], [ 2.9976583, 6.9012909 ], [ 2.9974785, 6.9013948 ], [ 2.9973096, 6.9015652 ], [ 2.9970923, 6.901693 ], [ 2.996875, 6.9017809 ], [ 2.9965237, 6.9019087 ], [ 2.9962903, 6.9020418 ], [ 2.9961723, 6.9021563 ], [ 2.9960704, 6.9022282 ], [ 2.995939, 6.9022575 ], [ 2.995711, 6.9023347 ], [ 2.995542, 6.9023321 ], [ 2.9953381, 6.9022735 ], [ 2.9951397, 6.9022335 ], [ 2.9949734, 6.9022362 ], [ 2.9948553, 6.9022895 ], [ 2.9947749, 6.9022868 ], [ 2.9947078, 6.9021829 ], [ 2.9946649, 6.9020045 ], [ 2.9946166, 6.9019406 ], [ 2.9945281, 6.9018847 ], [ 2.9944879, 6.9017782 ], [ 2.9944745, 6.9016264 ], [ 2.994453, 6.9015812 ], [ 2.9943055, 6.9014587 ], [ 2.9942411, 6.9013575 ], [ 2.9942223, 6.9012457 ], [ 2.9941821, 6.9011711 ], [ 2.9940641, 6.9010939 ], [ 2.9936242, 6.9008196 ], [ 2.9929751, 6.9005746 ], [ 2.992664, 6.9004628 ], [ 2.9925406, 6.9003217 ], [ 2.992487, 6.9002178 ], [ 2.9924521, 6.8996347 ], [ 2.992436, 6.8990116 ], [ 2.992436, 6.8979891 ], [ 2.9924199, 6.8970411 ], [ 2.9924563, 6.8966829 ] ] } },
{ "type": "Feature", "properties": { "id": "way/602968483", "@id": "way/602968483", "crossing": null, "footway": null, "highway": "residential", "junction": null, "lanes": null, "maxspeed": null, "name": null, "oneway": null, "ref": null, "surface": null }, "geometry": { "type": "LineString", "coordinates": [ [ 2.9832132, 6.8862487 ], [ 2.9830965, 6.8860103 ], [ 2.9829477, 6.8857148 ], [ 2.9827948, 6.8854977 ], [ 2.9826795, 6.8853047 ], [ 2.9825427, 6.8849159 ], [ 2.9824837, 6.8847082 ], [ 2.9824032, 6.8844432 ], [ 2.9823694, 6.8842997 ], [ 2.9823603, 6.8842608 ], [ 2.9823643, 6.8840824 ], [ 2.9824381, 6.883671 ], [ 2.9825521, 6.8832662 ], [ 2.9826647, 6.8829214 ], [ 2.982839, 6.8823249 ], [ 2.9828511, 6.8822264 ], [ 2.9828605, 6.8819122 ], [ 2.9828498, 6.8816126 ], [ 2.9828469, 6.8812333 ], [ 2.9828504, 6.8811939 ], [ 2.9828364, 6.8810121 ], [ 2.9827807, 6.8808776 ], [ 2.9826526, 6.8806133 ], [ 2.9825065, 6.8803491 ], [ 2.9824481, 6.88018 ], [ 2.9824206, 6.8799909 ], [ 2.9824179, 6.8796141 ], [ 2.9824461, 6.8794017 ], [ 2.9824612, 6.8793004 ], [ 2.9825313, 6.8788312 ] ] } },
{ "type": "Feature", "properties": { "id": "way/602968484", "@id": "way/602968484", "crossing": null, "footway": null, "highway": "residential", "junction": null, "lanes": null, "maxspeed": null, "name": null, "oneway": null, "ref": null, "surface": null }, "geometry": { "type": "LineString", "coordinates": [ [ 2.9659559, 6.8860023 ], [ 2.9659006, 6.8858542 ], [ 2.96586, 6.8856938 ], [ 2.9657755, 6.8854917 ], [ 2.9657064, 6.885326 ], [ 2.9656675, 6.8851602 ], [ 2.9656072, 6.885049 ], [ 2.9654952, 6.884848 ], [ 2.9654221, 6.8847488 ], [ 2.9652914, 6.8844965 ], [ 2.9651465, 6.8842502 ], [ 2.9650077, 6.8840944 ], [ 2.9649266, 6.8839553 ], [ 2.9648615, 6.8837942 ], [ 2.9648347, 6.8837096 ], [ 2.9648052, 6.8835372 ], [ 2.9647596, 6.8832909 ], [ 2.96471, 6.8831691 ], [ 2.9646067, 6.882966 ], [ 2.9645531, 6.8828309 ], [ 2.9645289, 6.8827224 ], [ 2.9645222, 6.8826205 ], [ 2.9645343, 6.8824987 ], [ 2.964541, 6.8823522 ], [ 2.9645578, 6.8822197 ], [ 2.9646054, 6.8820526 ], [ 2.9646557, 6.8819182 ], [ 2.9646986, 6.8817983 ], [ 2.9647603, 6.8817065 ], [ 2.9648126, 6.8816685 ], [ 2.9649387, 6.8815613 ], [ 2.9650191, 6.8814728 ], [ 2.965056, 6.8814022 ], [ 2.9650754, 6.8813423 ], [ 2.9650754, 6.8812351 ], [ 2.9650929, 6.8811066 ], [ 2.965117, 6.8809435 ], [ 2.9651901, 6.8806686 ], [ 2.965284, 6.8804822 ], [ 2.9653698, 6.8803038 ], [ 2.9653859, 6.8802798 ], [ 2.9654087, 6.8802698 ], [ 2.9654362, 6.8802798 ], [ 2.9654932, 6.8803011 ], [ 2.9655757, 6.8803178 ], [ 2.965681, 6.8803144 ], [ 2.9658741, 6.8802372 ], [ 2.9660068, 6.8802019 ], [ 2.9660806, 6.8802113 ], [ 2.9661671, 6.8802432 ], [ 2.9662523, 6.8803284 ], [ 2.9663341, 6.880391 ], [ 2.9664159, 6.8804403 ], [ 2.9664823, 6.8805268 ], [ 2.9665889, 6.8806393 ], [ 2.9666861, 6.8807485 ], [ 2.9668792, 6.8809016 ], [ 2.9670804, 6.8811206 ], [ 2.9671421, 6.8811726 ], [ 2.9672581, 6.8812311 ], [ 2.9674539, 6.8813044 ], [ 2.9676846, 6.8814195 ], [ 2.9677999, 6.8814981 ], [ 2.9678603, 6.8815593 ], [ 2.9679514, 6.8816778 ], [ 2.9680131, 6.8817737 ], [ 2.9681177, 6.8818742 ], [ 2.9682103, 6.8820067 ], [ 2.968341, 6.8822124 ], [ 2.9684584, 6.8824328 ], [ 2.9684899, 6.882494 ], [ 2.9685161, 6.8825533 ], [ 2.9685301, 6.8826425 ], [ 2.9685308, 6.8827503 ], [ 2.9685268, 6.8828269 ], [ 2.9685321, 6.8828855 ], [ 2.9685603, 6.882954 ], [ 2.9686368, 6.8831138 ], [ 2.9687849, 6.8833195 ], [ 2.9688433, 6.8834187 ], [ 2.968909, 6.8835312 ], [ 2.9690076, 6.8836131 ], [ 2.9690391, 6.8836657 ], [ 2.9690827, 6.8837376 ], [ 2.9691276, 6.8838621 ], [ 2.9691846, 6.8839253 ], [ 2.9692664, 6.8840884 ], [ 2.9693703, 6.8842362 ], [ 2.9694508, 6.8843207 ], [ 2.9694977, 6.88437 ], [ 2.9695722, 6.8843793 ], [ 2.9697264, 6.8844213 ], [ 2.9698055, 6.8844173 ], [ 2.9699108, 6.8843833 ], [ 2.9701455, 6.8843174 ], [ 2.9702333, 6.8842835 ], [ 2.9703165, 6.8842675 ], [ 2.9704767, 6.8843008 ], [ 2.9706223, 6.8843307 ], [ 2.9707671, 6.8843833 ], [ 2.9709388, 6.8844459 ], [ 2.9712405, 6.8845484 ], [ 2.9715248, 6.8846529 ], [ 2.9717005, 6.8847441 ], [ 2.971836, 6.8848513 ], [ 2.9720036, 6.8849332 ], [ 2.9721867, 6.8849718 ], [ 2.9722282, 6.8850038 ], [ 2.9722624, 6.885077 ], [ 2.9722661, 6.8850966 ], [ 2.9722168, 6.8852065 ], [ 2.9721541, 6.8853539 ], [ 2.9721333, 6.8854681 ], [ 2.9721256, 6.8856129 ], [ 2.9721206, 6.8857644 ], [ 2.9721156, 6.8859468 ], [ 2.9721317, 6.886487 ] ] } },
{ "type": "Feature", "properties": { "id": "way/603001676", "@id": "way/603001676", "crossing": null, "footway": null, "highway": "unclassified", "junction": null, "lanes": null, "maxspeed": null, "name": null, "oneway": null, "ref": null, "surface": null }, "geometry": { "type": "LineString", "coordinates": [ [ 2.9703634, 6.8932918 ], [ 2.9703426, 6.8915236 ], [ 2.9703781, 6.8884965 ], [ 2.9703586, 6.8864972 ] ] } },
{ "type": "Feature", "properties": { "id": "way/603001678", "@id": "way/603001678", "crossing": null, "footway": null, "highway": "residential", "junction": null, "lanes": null, "maxspeed": null, "name": null, "oneway": null, "ref": null, "surface": null }, "geometry": { "type": "LineString", "coordinates": [ [ 2.9716073, 6.8959773 ], [ 2.9717173, 6.8962622 ], [ 2.971901, 6.8965112 ] ] } },
{ "type": "Feature", "properties": { "id": "way/603001680", "@id": "way/603001680", "crossing": null, "footway": null, "highway": "residential", "junction": null, "lanes": null, "maxspeed": null, "name": null, "oneway": null, "ref": null, "surface": null }, "geometry": { "type": "LineString", "coordinates": [ [ 2.9716073, 6.8959773 ], [ 2.9718366, 6.896177 ], [ 2.9720137, 6.8962742 ], [ 2.9721062, 6.8962849 ], [ 2.9723704, 6.8962596 ], [ 2.9724884, 6.8962649 ], [ 2.9725648, 6.8962955 ], [ 2.9727419, 6.8964074 ] ] } },
{ "type": "Feature", "properties": { "id": "way/603001682", "@id": "way/603001682", "crossing": null, "footway": null, "highway": "residential", "junction": null, "lanes": null, "maxspeed": null, "name": null, "oneway": null, "ref": null, "surface": null }, "geometry": { "type": "LineString", "coordinates": [ [ 2.9704432, 6.8949655 ], [ 2.9710427, 6.8954434 ], [ 2.9714973, 6.8958322 ], [ 2.9715791, 6.895944 ], [ 2.9716073, 6.8959773 ] ] } },
{ "type": "Feature", "properties": { "id": "way/603001684", "@id": "way/603001684", "crossing": null, "footway": null, "highway": "residential", "junction": null, "lanes": null, "maxspeed": null, "name": null, "oneway": null, "ref": null, "surface": null }, "geometry": { "type": "LineString", "coordinates": [ [ 2.9704432, 6.8949655 ], [ 2.9702622, 6.8949801 ] ] } },
{ "type": "Feature", "properties": { "id": "way/603001686", "@id": "way/603001686", "crossing": null, "footway": null, "highway": "residential", "junction": null, "lanes": null, "maxspeed": null, "name": null, "oneway": null, "ref": null, "surface": null }, "geometry": { "type": "LineString", "coordinates": [ [ 2.9703252, 6.8948736 ], [ 2.9704432, 6.8949655 ] ] } },
{ "type": "Feature", "properties": { "id": "way/603001688", "@id": "way/603001688", "crossing": null, "footway": null, "highway": "unclassified", "junction": null, "lanes": null, "maxspeed": null, "name": null, "oneway": null, "ref": null, "surface": null }, "geometry": { "type": "LineString", "coordinates": [ [ 2.9703634, 6.8932918 ], [ 2.9703252, 6.8948736 ], [ 2.9703212, 6.8949348 ], [ 2.9702622, 6.8949801 ], [ 2.9701602, 6.8949961 ], [ 2.9694964, 6.8950453 ], [ 2.9687695, 6.8950134 ], [ 2.9680976, 6.8950147 ], [ 2.9675572, 6.8950187 ], [ 2.9672433, 6.8950267 ], [ 2.9671736, 6.8950813 ], [ 2.9666801, 6.89553 ], [ 2.9662563, 6.8959107 ], [ 2.9661597, 6.8959733 ], [ 2.9660404, 6.8959986 ], [ 2.9658714, 6.896 ], [ 2.9656434, 6.8959534 ], [ 2.9652505, 6.8957803 ], [ 2.9651338, 6.8957483 ], [ 2.9650292, 6.8957536 ], [ 2.9648213, 6.8957803 ], [ 2.9645638, 6.8957736 ], [ 2.964246, 6.8957976 ], [ 2.9640971, 6.8957776 ], [ 2.9640113, 6.8957736 ], [ 2.9638222, 6.8957989 ], [ 2.9630712, 6.8960173 ], [ 2.9629129, 6.8960332 ], [ 2.9628164, 6.8960106 ], [ 2.9626273, 6.8959294 ], [ 2.9624918, 6.8959068 ], [ 2.9623577, 6.8959254 ], [ 2.9622464, 6.8959214 ], [ 2.9621297, 6.8958721 ], [ 2.9620278, 6.8958468 ], [ 2.9619192, 6.8958335 ], [ 2.9616456, 6.8958415 ], [ 2.9614712, 6.8958282 ], [ 2.9613304, 6.8958522 ], [ 2.9611641, 6.8959147 ], [ 2.9607806, 6.8959786 ], [ 2.9604936, 6.895964 ], [ 2.9600926, 6.8959094 ], [ 2.9599558, 6.8958602 ], [ 2.9598445, 6.8958349 ], [ 2.959709, 6.8958362 ], [ 2.9595481, 6.8958828 ], [ 2.9591887, 6.8961903 ], [ 2.9587354, 6.896639 ], [ 2.9584175, 6.8969279 ], [ 2.9581399, 6.8973234 ], [ 2.9577966, 6.8979518 ], [ 2.9576987, 6.8982447 ], [ 2.9577054, 6.8983738 ], [ 2.9577255, 6.8985017 ], [ 2.9577832, 6.898748 ], [ 2.9579227, 6.8989676 ], [ 2.9579857, 6.8991381 ], [ 2.9579991, 6.8992499 ], [ 2.957979, 6.8993644 ], [ 2.9579321, 6.8994243 ], [ 2.9577792, 6.8995202 ], [ 2.9575069, 6.8999582 ], [ 2.9573554, 6.9002112 ], [ 2.9572414, 6.9003709 ], [ 2.9570536, 6.900528 ], [ 2.9569061, 6.9006239 ], [ 2.9566915, 6.9008183 ], [ 2.9564823, 6.9010539 ], [ 2.9562959, 6.9013149 ], [ 2.9561698, 6.9013974 ], [ 2.9559968, 6.9015425 ], [ 2.9558775, 6.9016278 ], [ 2.9558185, 6.9016597 ], [ 2.9557702, 6.9016717 ], [ 2.9557219, 6.9016717 ], [ 2.955624, 6.9016544 ], [ 2.9554899, 6.901665 ], [ 2.9553263, 6.901689 ], [ 2.9552391, 6.9017316 ], [ 2.9551694, 6.9017356 ], [ 2.9550688, 6.9017076 ], [ 2.9547979, 6.9016837 ], [ 2.9541582, 6.9016184 ], [ 2.9537518, 6.9016025 ], [ 2.9533951, 6.9016038 ], [ 2.9528747, 6.9016224 ], [ 2.9524791, 6.9016491 ], [ 2.9523598, 6.9016717 ], [ 2.9523115, 6.901689 ], [ 2.9520567, 6.9017715 ], [ 2.9518837, 6.9018221 ], [ 2.9516812, 6.9018541 ], [ 2.951484, 6.9019087 ], [ 2.9514036, 6.9019513 ], [ 2.9513392, 6.9019739 ], [ 2.9512279, 6.9019739 ], [ 2.9510482, 6.9019713 ], [ 2.9508416, 6.9019233 ], [ 2.9505587, 6.9018088 ], [ 2.9503387, 6.9016717 ], [ 2.9498935, 6.90144 ], [ 2.9495729, 6.9012217 ], [ 2.9492994, 6.9011032 ], [ 2.9491223, 6.9010499 ], [ 2.9489386, 6.9010792 ], [ 2.9488112, 6.9010739 ], [ 2.9486945, 6.9010792 ], [ 2.9484491, 6.9010206 ], [ 2.9481621, 6.9009834 ], [ 2.9480414, 6.9009328 ], [ 2.9479596, 6.9009088 ], [ 2.9477933, 6.9008729 ], [ 2.9474607, 6.9008129 ], [ 2.9470262, 6.9005786 ], [ 2.9468223, 6.900544 ], [ 2.9467526, 6.9005467 ], [ 2.9466735, 6.9005254 ], [ 2.9466212, 6.9004921 ], [ 2.9462711, 6.9004255 ], [ 2.945791, 6.9002551 ], [ 2.9455335, 6.9002178 ], [ 2.9454651, 6.9002191 ], [ 2.9451795, 6.9001459 ], [ 2.9447705, 6.9001512 ], [ 2.9443359, 6.9002338 ], [ 2.9439698, 6.9003816 ], [ 2.9437231, 6.9005081 ], [ 2.9435889, 6.90056 ], [ 2.943314, 6.9006692 ], [ 2.942791, 6.9008968 ], [ 2.9425858, 6.901002 ], [ 2.9424691, 6.9010752 ], [ 2.941816, 6.9014966 ], [ 2.9415196, 6.9017249 ], [ 2.9412594, 6.9018924 ], [ 2.9410589, 6.9019812 ], [ 2.9410177, 6.9020195 ], [ 2.9409926, 6.9020305 ], [ 2.9409336, 6.9020418 ], [ 2.9406734, 6.9021696 ], [ 2.9404843, 6.9022282 ], [ 2.9402657, 6.9022522 ], [ 2.9402094, 6.9022678 ], [ 2.9401876, 6.9022685 ], [ 2.9401329, 6.9022442 ], [ 2.940039, 6.9022335 ], [ 2.9398634, 6.9022855 ], [ 2.9397641, 6.9023041 ], [ 2.9395656, 6.9022615 ], [ 2.9392116, 6.902143 ], [ 2.9387677, 6.902119 ], [ 2.9386188, 6.9021257 ], [ 2.9385115, 6.9021616 ], [ 2.9383385, 6.9022056 ], [ 2.9381883, 6.9022788 ], [ 2.9380408, 6.9023227 ], [ 2.9379067, 6.9023334 ], [ 2.937668, 6.9023028 ], [ 2.937495, 6.9022682 ], [ 2.9374158, 6.9022841 ], [ 2.9373233, 6.9023454 ], [ 2.9372442, 6.9024213 ], [ 2.9371127, 6.9024559 ], [ 2.9369491, 6.9025065 ], [ 2.9368311, 6.9026423 ], [ 2.9367265, 6.9028327 ], [ 2.9366755, 6.9030124 ], [ 2.9366045, 6.903075 ], [ 2.9363537, 6.9032094 ], [ 2.9357931, 6.9033705 ], [ 2.9354109, 6.9034917 ], [ 2.9348798, 6.9036435 ], [ 2.9346532, 6.90373 ], [ 2.9345445, 6.9037593 ], [ 2.9344252, 6.90377 ], [ 2.9342307, 6.903746 ], [ 2.9340617, 6.9036887 ], [ 2.9337949, 6.9036142 ], [ 2.9334314, 6.9035809 ], [ 2.9329285, 6.9036062 ], [ 2.9328185, 6.9035969 ], [ 2.9327166, 6.9034957 ], [ 2.9325543, 6.9032387 ], [ 2.9324122, 6.9031176 ], [ 2.9323357, 6.9030963 ], [ 2.9322016, 6.9031043 ], [ 2.9320756, 6.9031056 ], [ 2.9319294, 6.9030736 ], [ 2.9317845, 6.9030164 ] ] } },
{ "type": "Feature", "properties": { "id": "way/1088445285", "@id": "way/1088445285", "crossing": null, "footway": null, "highway": "residential", "junction": null, "lanes": null, "maxspeed": null, "name": null, "oneway": null, "ref": null, "surface": null }, "geometry": { "type": "LineString", "coordinates": [ [ 2.9874063, 6.8824405 ], [ 2.9873505, 6.8825952 ], [ 2.9873532, 6.8826857 ], [ 2.9873356, 6.8834504 ], [ 2.9873237, 6.8839666 ], [ 2.9873324, 6.8844336 ], [ 2.9873324, 6.8851152 ], [ 2.9873324, 6.8855746 ], [ 2.9873237, 6.885776 ], [ 2.9873419, 6.8858627 ], [ 2.987446, 6.8861262 ] ] } },
{ "type": "Feature", "properties": { "id": "way/1088446854", "@id": "way/1088446854", "crossing": null, "footway": null, "highway": "residential", "junction": null, "lanes": null, "maxspeed": null, "name": null, "oneway": null, "ref": null, "surface": null }, "geometry": { "type": "LineString", "coordinates": [ [ 2.9865593, 6.8861546 ], [ 2.9865756, 6.8857704 ], [ 2.9866022, 6.8848629 ], [ 2.9865968, 6.8843522 ], [ 2.986568, 6.8840344 ], [ 2.9865661, 6.8839553 ], [ 2.9865754, 6.8838095 ], [ 2.9866174, 6.8832115 ] ] } },
{ "type": "Feature", "properties": { "id": "way/1111951474", "@id": "way/1111951474", "crossing": null, "footway": null, "highway": "residential", "junction": null, "lanes": null, "maxspeed": null, "name": null, "oneway": null, "ref": null, "surface": null }, "geometry": { "type": "LineString", "coordinates": [ [ 2.9897888, 6.8893389 ], [ 2.9899268, 6.8891819 ] ] } },
{ "type": "Feature", "properties": { "id": "way/1111951475", "@id": "way/1111951475", "crossing": null, "footway": null, "highway": "residential", "junction": null, "lanes": null, "maxspeed": null, "name": null, "oneway": null, "ref": null, "surface": null }, "geometry": { "type": "LineString", "coordinates": [ [ 2.9887028, 6.8891797 ], [ 2.9886889, 6.88811 ], [ 2.9886997, 6.8880594 ], [ 2.988764, 6.8880141 ], [ 2.9908481, 6.8879396 ], [ 2.9910761, 6.887905 ], [ 2.9913604, 6.8878624 ], [ 2.9917735, 6.8877079 ], [ 2.9919237, 6.8876946 ], [ 2.9922616, 6.8876893 ], [ 2.9930817, 6.8876829 ] ] } },
{ "type": "Feature", "properties": { "id": "way/1111951476", "@id": "way/1111951476", "crossing": null, "footway": null, "highway": "residential", "junction": null, "lanes": null, "maxspeed": null, "name": null, "oneway": null, "ref": null, "surface": null }, "geometry": { "type": "LineString", "coordinates": [ [ 2.9864177, 6.8892184 ], [ 2.9863769, 6.8890952 ], [ 2.9862374, 6.8882192 ], [ 2.9861543, 6.8877505 ], [ 2.9861194, 6.8876546 ], [ 2.9860201, 6.8875135 ], [ 2.9859424, 6.8874576 ] ] } },
{ "type": "Feature", "properties": { "id": "way/1111951477", "@id": "way/1111951477", "crossing": null, "footway": null, "highway": "service", "junction": null, "lanes": null, "maxspeed": null, "name": null, "oneway": null, "ref": null, "surface": null }, "geometry": { "type": "LineString", "coordinates": [ [ 2.9852599, 6.8861962 ], [ 2.985245, 6.8855443 ] ] } },
{ "type": "Feature", "properties": { "id": "way/1118017290", "@id": "way/1118017290", "crossing": null, "footway": null, "highway": "service", "junction": null, "lanes": null, "maxspeed": null, "name": null, "oneway": null, "ref": null, "surface": null }, "geometry": { "type": "LineString", "coordinates": [ [ 2.9879245, 6.889176 ], [ 2.9879098, 6.8888556 ], [ 2.9878548, 6.888343 ], [ 2.9878052, 6.8882511 ] ] } },
{ "type": "Feature", "properties": { "id": "way/1134477255", "@id": "way/1134477255", "crossing": null, "footway": null, "highway": "service", "junction": null, "lanes": null, "maxspeed": null, "name": null, "oneway": null, "ref": null, "surface": null }, "geometry": { "type": "LineString", "coordinates": [ [ 2.9808086, 6.8945274 ], [ 2.9809454, 6.8946233 ], [ 2.9810715, 6.8947058 ], [ 2.9811546, 6.8947964 ] ] } },
{ "type": "Feature", "properties": { "id": "way/1134477256", "@id": "way/1134477256", "crossing": null, "footway": null, "highway": "service", "junction": null, "lanes": null, "maxspeed": null, "name": null, "oneway": null, "ref": null, "surface": null }, "geometry": { "type": "LineString", "coordinates": [ [ 2.9807188, 6.8943397 ], [ 2.9808086, 6.8945274 ], [ 2.9808649, 6.8946739 ], [ 2.9809025, 6.8949215 ], [ 2.9809856, 6.8950493 ] ] } },
{ "type": "Feature", "properties": { "id": "way/1134477257", "@id": "way/1134477257", "crossing": null, "footway": null, "highway": "residential", "junction": null, "lanes": null, "maxspeed": null, "name": null, "oneway": null, "ref": null, "surface": null }, "geometry": { "type": "LineString", "coordinates": [ [ 2.9815462, 6.8949988 ], [ 2.9823804, 6.8949588 ], [ 2.9824716, 6.8949242 ], [ 2.9825091, 6.8948523 ], [ 2.9825534, 6.8940468 ], [ 2.9827128, 6.8924213 ] ] } },
{ "type": "Feature", "properties": { "id": "way/1228772385", "@id": "way/1228772385", "crossing": null, "footway": null, "highway": "residential", "junction": null, "lanes": null, "maxspeed": null, "name": null, "oneway": null, "ref": null, "surface": null }, "geometry": { "type": "LineString", "coordinates": [ [ 2.9780889, 6.8864324 ], [ 2.9779735, 6.8850158 ], [ 2.9779601, 6.8849332 ], [ 2.9779413, 6.8848746 ], [ 2.9779226, 6.8848373 ], [ 2.9778823, 6.8847894 ], [ 2.9778179, 6.8847788 ], [ 2.9769462, 6.8848427 ] ] } },
{ "type": "Feature", "properties": { "id": "way/1228793111", "@id": "way/1228793111", "crossing": null, "footway": null, "highway": "residential", "junction": null, "lanes": null, "maxspeed": null, "name": null, "oneway": null, "ref": null, "surface": null }, "geometry": { "type": "LineString", "coordinates": [ [ 2.9814953, 6.8863007 ], [ 2.9814416, 6.8853173 ], [ 2.9814342, 6.885302 ], [ 2.9814208, 6.885293 ], [ 2.9813997, 6.885288 ], [ 2.9808824, 6.8853033 ], [ 2.9808039, 6.88531 ], [ 2.9806306, 6.8853393 ], [ 2.9806078, 6.88534 ], [ 2.9804358, 6.8853226 ], [ 2.9801783, 6.8853366 ], [ 2.9801719, 6.8853436 ], [ 2.9801689, 6.8853536 ], [ 2.9801743, 6.8857068 ], [ 2.980191, 6.8859983 ], [ 2.9802091, 6.8863337 ] ] } },
{ "type": "Feature", "properties": { "id": "way/1486742307", "@id": "way/1486742307", "crossing": null, "footway": null, "highway": "secondary", "junction": null, "lanes": null, "maxspeed": null, "name": null, "oneway": "yes", "ref": null, "surface": null }, "geometry": { "type": "LineString", "coordinates": [ [ 2.994548, 6.8861856 ], [ 2.9944892, 6.8861102 ], [ 2.9944728, 6.8860687 ], [ 2.9944156, 6.8859158 ], [ 2.994396, 6.8858566 ] ] } },
{ "type": "Feature", "properties": { "id": "way/1486742308", "@id": "way/1486742308", "crossing": null, "footway": null, "highway": "secondary", "junction": null, "lanes": null, "maxspeed": null, "name": null, "oneway": "yes", "ref": null, "surface": null }, "geometry": { "type": "LineString", "coordinates": [ [ 2.9944736, 6.8858533 ], [ 2.9944922, 6.8859124 ], [ 2.9945329, 6.8860605 ], [ 2.9945429, 6.8860982 ], [ 2.994548, 6.8861856 ] ] } },
{ "type": "Feature", "properties": { "id": "way/1486742309", "@id": "way/1486742309", "crossing": null, "footway": null, "highway": "primary", "junction": null, "lanes": "1", "maxspeed": "80", "name": "Oja Odan Road, Ilaro", "oneway": "yes", "ref": "F105", "surface": "paved" }, "geometry": { "type": "LineString", "coordinates": [ [ 2.9935758, 6.8859286 ], [ 2.9937811, 6.8858799 ], [ 2.994396, 6.8858566 ], [ 2.9944736, 6.8858533 ], [ 2.9953971, 6.8858386 ], [ 2.9954556, 6.8858632 ] ] } },
{ "type": "Feature", "properties": { "id": "way/1486742311", "@id": "way/1486742311", "crossing": null, "footway": null, "highway": "primary", "junction": null, "lanes": "1", "maxspeed": "80", "name": "Oja Odan Road, Ilaro", "oneway": "yes", "ref": "F105", "surface": "paved" }, "geometry": { "type": "LineString", "coordinates": [ [ 2.9954556, 6.8858632 ], [ 2.9953965, 6.8858838 ], [ 2.9946919, 6.8859054 ], [ 2.9944922, 6.8859124 ], [ 2.9944156, 6.8859158 ], [ 2.994199, 6.8859247 ], [ 2.9938039, 6.8859411 ], [ 2.9935758, 6.8859286 ] ] } },
{ "type": "Feature", "properties": { "id": "way/1504512626", "@id": "way/1504512626", "crossing": null, "footway": null, "highway": "footway", "junction": null, "lanes": null, "maxspeed": null, "name": null, "oneway": null, "ref": null, "surface": null }, "geometry": { "type": "LineString", "coordinates": [ [ 2.9876456, 6.8922107 ], [ 2.9876751, 6.8927913 ] ] } },
{ "type": "Feature", "properties": { "id": "way/1504512627", "@id": "way/1504512627", "crossing": null, "footway": null, "highway": "service", "junction": null, "lanes": null, "maxspeed": null, "name": null, "oneway": null, "ref": null, "surface": null }, "geometry": { "type": "LineString", "coordinates": [ [ 2.9872172, 6.893252 ], [ 2.9872137, 6.8935342 ] ] } },
{ "type": "Feature", "properties": { "id": "way/1504512628", "@id": "way/1504512628", "crossing": null, "footway": null, "highway": "footway", "junction": null, "lanes": null, "maxspeed": null, "name": null, "oneway": null, "ref": null, "surface": null }, "geometry": { "type": "LineString", "coordinates": [ [ 2.9850519, 6.8942931 ], [ 2.9852906, 6.8940215 ], [ 2.9856876, 6.8935821 ], [ 2.9858002, 6.8934516 ], [ 2.9859316, 6.8933718 ], [ 2.9861355, 6.8932634 ] ] } },
{ "type": "Feature", "properties": { "id": "way/1537971643", "@id": "way/1537971643", "crossing": null, "footway": null, "highway": "residential", "junction": null, "lanes": null, "maxspeed": null, "name": null, "oneway": null, "ref": null, "surface": null }, "geometry": { "type": "LineString", "coordinates": [ [ 2.9945971, 6.8951511 ], [ 2.9947454, 6.8953782 ], [ 2.9948527, 6.8954927 ], [ 2.9950605, 6.8956884 ], [ 2.9951544, 6.8957723 ], [ 2.9953086, 6.8958415 ], [ 2.995377, 6.8958548 ], [ 2.9954481, 6.8958668 ], [ 2.9955997, 6.8958801 ], [ 2.9957941, 6.8958655 ], [ 2.9960074, 6.8958775 ], [ 2.9962595, 6.8958575 ], [ 2.9963319, 6.8958522 ], [ 2.9964606, 6.8958575 ], [ 2.9965362, 6.895906 ], [ 2.9966055, 6.8959181 ], [ 2.996755, 6.8959627 ], [ 2.9970574, 6.8960872 ], [ 2.9972894, 6.8961744 ], [ 2.9973196, 6.896175 ], [ 2.9973887, 6.896177 ], [ 2.9974604, 6.896197 ], [ 2.9975644, 6.8962582 ], [ 2.9977374, 6.8963255 ], [ 2.9979204, 6.8963747 ], [ 2.9982383, 6.8964666 ], [ 2.9987144, 6.8966842 ] ] } }
]
}
