{
"type": "FeatureCollection",
"name": "buildings",
"crs": { "type": "name", "properties": { "name": "urn:ogc:def:crs:OGC:1.3:CRS84" } },
"features": [
{ "type": "Feature", "properties": { "id": "way/456534203", "@id": "way/456534203", "addr:city": null, "addr:street": null, "amenity": null, "barrier": null, "building": "yes", "crossing": null, "footway": null, "highway": null, "junction": null, "landuse": null, "leisure": null, "man_made": null, "name": "QS dept", "oneway": null, "ref": null, "route": null, "short_name": null, "sport": null, "surface": null, "tower:type": null, "type": null, "@tainted": null, "website": null, "wikidata": null, "wikipedia": null }, "geometry": { "type": "Polygon", "coordinates": [ [ [ 2.9830795, 6.8959829 ], [ 2.9830852, 6.8957405 ], [ 2.9831516, 6.895742 ], [ 2.983146, 6.8959844 ], [ 2.9830795, 6.8959829 ] ] ] } },
{ "type": "Feature", "properties": { "id": "way/456534204", "@id": "way/456534204", "addr:city": null, "addr:street": null, "amenity": null, "barrier": null, "building": "yes", "crossing": null, "footway": null, "highway": null, "junction": null, "landuse": null, "leisure": null, "man_made": null, "name": "Surveying & Geoinformatics dept", "oneway": null, "ref": null, "route": null, "short_name": null, "sport": null, "surface": null, "tower:type": null, "type": null, "@tainted": null, "website": null, "wikidata": null, "wikipedia": null }, "geometry": { "type": "Polygon", "coordinates": [ [ [ 2.9831482, 6.8954713 ], [ 2.9831423, 6.895721 ], [ 2.98309, 6.8957198 ], [ 2.9830959, 6.8954701 ], [ 2.9831482, 6.8954713 ] ] ] } },
{ "type": "Feature", "properties": { "id": "way/456534205", "@id": "way/456534205", "addr:city": null, "addr:street": null, "amenity": null, "barrier": null, "building": "yes", "crossing": null, "footway": null, "highway": null, "junction": null, "landuse": null, "leisure": null, "man_made": null, "name": "AG Block", "oneway": null, "ref": null, "route": null, "short_name": null, "sport": null, "surface": null, "tower:type": null, "type": null, "@tainted": null, "website": null, "wikidata": null, "wikipedia": null }, "geometry": { "type": "Polygon", "coordinates": [ [ [ 2.983023, 6.896276 ], [ 2.9824901, 6.8962778 ], [ 2.9824896, 6.896123 ], [ 2.9830224, 6.8961212 ], [ 2.983023, 6.896276 ] ] ] } },
{ "type": "Feature", "properties": { "id": "way/456534206", "@id": "way/456534206", "addr:city": null, "addr:street": null, "amenity": null, "barrier": null, "building": "yes", "crossing": null, "footway": null, "highway": null, "junction": null, "landuse": null, "leisure": null, "man_made": null, "name": "GIS Lab", "oneway": null, "ref": null, "route": null, "short_name": null, "sport": null, "surface": null, "tower:type": null, "type": null, "@tainted": null, "website": null, "wikidata": null, "wikipedia": null }, "geometry": { "type": "Polygon", "coordinates": [ [ [ 2.9832136, 6.8966747 ], [ 2.9829917, 6.8966653 ], [ 2.9829911, 6.8966396 ], [ 2.9829966, 6.8965481 ], [ 2.9830187, 6.896549 ], [ 2.983025, 6.8964004 ], [ 2.9830034, 6.8964031 ], [ 2.9829967, 6.8963992 ], [ 2.9830013, 6.8962902 ], [ 2.9833615, 6.8963053 ], [ 2.9833562, 6.8964304 ], [ 2.9832036, 6.896424 ], [ 2.9831984, 6.8965446 ], [ 2.9832191, 6.8965454 ], [ 2.9832136, 6.8966747 ] ] ] } },
{ "type": "Feature", "properties": { "id": "way/456650033", "@id": "way/456650033", "addr:city": null, "addr:street": null, "amenity": null, "barrier": null, "building": "yes", "crossing": null, "footway": null, "highway": null, "junction": null, "landuse": null, "leisure": null, "man_made": null, "name": "ICT Center", "oneway": null, "ref": null, "route": null, "short_name": null, "sport": null, "surface": null, "tower:type": null, "type": null, "@tainted": null, "website": null, "wikidata": null, "wikipedia": null }, "geometry": { "type": "Polygon", "coordinates": [ [ [ 2.9840718, 6.8951701 ], [ 2.983571, 6.8951658 ], [ 2.983572, 6.8950546 ], [ 2.9836968, 6.8950556 ], [ 2.983698, 6.8949197 ], [ 2.9835591, 6.8949185 ], [ 2.9835604, 6.8947734 ], [ 2.9840638, 6.8947778 ], [ 2.9840626, 6.8949194 ], [ 2.9837936, 6.894917 ], [ 2.9837925, 6.8950369 ], [ 2.984073, 6.8950394 ], [ 2.9840718, 6.8951701 ] ] ] } },
{ "type": "Feature", "properties": { "id": "way/456650034", "@id": "way/456650034", "addr:city": null, "addr:street": null, "amenity": null, "barrier": null, "building": "yes", "crossing": null, "footway": null, "highway": null, "junction": null, "landuse": null, "leisure": null, "man_made": null, "name": "AH Block", "oneway": null, "ref": null, "route": null, "short_name": null, "sport": null, "surface": null, "tower:type": null, "type": null, "@tainted": null, "website": null, "wikidata": null, "wikipedia": null }, "geometry": { "type": "Polygon", "coordinates": [ [ [ 2.9835299, 6.8948419 ], [ 2.9830358, 6.8948448 ], [ 2.9830315, 6.8947088 ], [ 2.9835343, 6.8947045 ], [ 2.9835299, 6.8948419 ] ] ] } },
{ "type": "Feature", "properties": { "id": "way/456650035", "@id": "way/456650035", "addr:city": null, "addr:street": null, "amenity": null, "barrier": null, "building": "yes", "crossing": null, "footway": null, "highway": null, "junction": null, "landuse": null, "leisure": null, "man_made": null, "name": "Mechanical workshop", "oneway": null, "ref": null, "route": null, "short_name": null, "sport": null, "surface": null, "tower:type": null, "type": null, "@tainted": null, "website": null, "wikidata": null, "wikipedia": null }, "geometry": { "type": "Polygon", "coordinates": [ [ [ 2.9834493, 6.8953782 ], [ 2.9833329, 6.8953775 ], [ 2.9833332, 6.8953193 ], [ 2.9830337, 6.8953174 ], [ 2.9830345, 6.8951747 ], [ 2.9831029, 6.8951751 ], [ 2.9831918, 6.8951757 ], [ 2.9833448, 6.8951766 ], [ 2.9833565, 6.8951767 ], [ 2.9834425, 6.8951772 ], [ 2.9835384, 6.8951778 ], [ 2.9835375, 6.8953256 ], [ 2.9834496, 6.895325 ], [ 2.9834493, 6.8953782 ] ] ] } },
{ "type": "Feature", "properties": { "id": "way/456650036", "@id": "way/456650036", "addr:city": null, "addr:street": null, "amenity": null, "barrier": null, "building": "yes", "crossing": null, "footway": null, "highway": null, "junction": null, "landuse": null, "leisure": null, "man_made": null, "name": "AJ Block", "oneway": null, "ref": null, "route": null, "short_name": null, "sport": null, "surface": null, "tower:type": null, "type": null, "@tainted": null, "website": null, "wikidata": null, "wikipedia": null }, "geometry": { "type": "Polygon", "coordinates": [ [ [ 2.9835331, 6.895094 ], [ 2.9834469, 6.8950935 ], [ 2.983442, 6.8950935 ], [ 2.9833521, 6.895093 ], [ 2.9833435, 6.8950929 ], [ 2.9831933, 6.8950921 ], [ 2.9831044, 6.8950916 ], [ 2.9830282, 6.8950912 ], [ 2.983029, 6.8949494 ], [ 2.9835339, 6.8949522 ], [ 2.9835331, 6.895094 ] ] ] } },
{ "type": "Feature", "properties": { "id": "way/456650041", "@id": "way/456650041", "addr:city": null, "addr:street": null, "amenity": null, "barrier": null, "building": "yes", "crossing": null, "footway": null, "highway": null, "junction": null, "landuse": null, "leisure": null, "man_made": null, "name": "Sch. of Environmental studies", "oneway": null, "ref": null, "route": null, "short_name": null, "sport": null, "surface": null, "tower:type": null, "type": null, "@tainted": null, "website": null, "wikidata": null, "wikipedia": null }, "geometry": { "type": "Polygon", "coordinates": [ [ [ 2.9850315, 6.8955637 ], [ 2.985063, 6.8957442 ], [ 2.9844124, 6.8958559 ], [ 2.9843823, 6.8956836 ], [ 2.9844568, 6.8956708 ], [ 2.9844589, 6.895683 ], [ 2.9846703, 6.8956466 ], [ 2.9846676, 6.8956314 ], [ 2.9847371, 6.8956195 ], [ 2.9847396, 6.8956341 ], [ 2.9849604, 6.8955961 ], [ 2.984957, 6.8955765 ], [ 2.9850315, 6.8955637 ] ] ] } },
{ "type": "Feature", "properties": { "id": "way/456650042", "@id": "way/456650042", "addr:city": null, "addr:street": null, "amenity": null, "barrier": null, "building": "yes", "crossing": null, "footway": null, "highway": null, "junction": null, "landuse": null, "leisure": null, "man_made": null, "name": "Library", "oneway": null, "ref": null, "route": null, "short_name": null, "sport": null, "surface": null, "tower:type": null, "type": null, "@tainted": null, "website": null, "wikidata": null, "wikipedia": null }, "geometry": { "type": "Polygon", "coordinates": [ [ [ 2.984263, 6.8967044 ], [ 2.9839018, 6.8967108 ], [ 2.9838964, 6.8964054 ], [ 2.9842441, 6.8963993 ], [ 2.9842464, 6.8965298 ], [ 2.9842133, 6.8965304 ], [ 2.9842143, 6.8965856 ], [ 2.9842608, 6.8965848 ], [ 2.984263, 6.8967044 ] ] ] } },
{ "type": "Feature", "properties": { "id": "way/456650043", "@id": "way/456650043", "addr:city": null, "addr:street": null, "amenity": null, "barrier": null, "building": "yes", "crossing": null, "footway": null, "highway": null, "junction": null, "landuse": null, "leisure": null, "man_made": null, "name": "Library Extension", "oneway": null, "ref": null, "route": null, "short_name": null, "sport": null, "surface": null, "tower:type": null, "type": null, "@tainted": null, "website": null, "wikidata": null, "wikipedia": null }, "geometry": { "type": "Polygon", "coordinates": [ [ [ 2.9846315, 6.8963177 ], [ 2.9844949, 6.8963229 ], [ 2.9844821, 6.8959952 ], [ 2.9844294, 6.8959972 ], [ 2.9844416, 6.8963116 ], [ 2.9843239, 6.8963161 ], [ 2.9843096, 6.8959478 ], [ 2.9846166, 6.8959361 ], [ 2.9846315, 6.8963177 ] ] ] } },
{ "type": "Feature", "properties": { "id": "way/456650044", "@id": "way/456650044", "addr:city": null, "addr:street": null, "amenity": null, "barrier": null, "building": "yes", "crossing": null, "footway": null, "highway": null, "junction": null, "landuse": null, "leisure": null, "man_made": null, "name": "Electrical Dept Lab", "oneway": null, "ref": null, "route": null, "short_name": null, "sport": null, "surface": null, "tower:type": null, "type": null, "@tainted": null, "website": null, "wikidata": null, "wikipedia": null }, "geometry": { "type": "Polygon", "coordinates": [ [ [ 2.9824989, 6.8967721 ], [ 2.9824987, 6.8966324 ], [ 2.9825426, 6.8966323 ], [ 2.9825425, 6.8965298 ], [ 2.9824963, 6.8965298 ], [ 2.9824961, 6.8964037 ], [ 2.9830034, 6.8964031 ], [ 2.9830036, 6.8965343 ], [ 2.9829125, 6.8965344 ], [ 2.9829126, 6.8966397 ], [ 2.9829911, 6.8966396 ], [ 2.9829912, 6.8967715 ], [ 2.9824989, 6.8967721 ] ] ] } },
{ "type": "Feature", "properties": { "id": "way/456650046", "@id": "way/456650046", "addr:city": null, "addr:street": null, "amenity": null, "barrier": null, "building": "yes", "crossing": null, "footway": null, "highway": null, "junction": null, "landuse": null, "leisure": null, "man_made": null, "name": null, "oneway": null, "ref": null, "route": null, "short_name": null, "sport": null, "surface": null, "tower:type": null, "type": null, "@tainted": null, "website": null, "wikidata": null, "wikipedia": null }, "geometry": { "type": "Polygon", "coordinates": [ [ [ 2.981983, 6.8968416 ], [ 2.9819825, 6.8967197 ], [ 2.982435, 6.8967179 ], [ 2.9824355, 6.8968399 ], [ 2.981983, 6.8968416 ] ] ] } },
{ "type": "Feature", "properties": { "id": "way/456650047", "@id": "way/456650047", "addr:city": null, "addr:street": null, "amenity": null, "barrier": null, "building": "yes", "crossing": null, "footway": null, "highway": null, "junction": null, "landuse": null, "leisure": null, "man_made": null, "name": null, "oneway": null, "ref": null, "route": null, "short_name": null, "sport": null, "surface": null, "tower:type": null, "type": null, "@tainted": null, "website": null, "wikidata": null, "wikipedia": null }, "geometry": { "type": "Polygon", "coordinates": [ [ [ 2.9819855, 6.8966532 ], [ 2.9819886, 6.8965102 ], [ 2.9822286, 6.8965152 ], [ 2.9822256, 6.8966582 ], [ 2.9819855, 6.8966532 ] ] ] } },
{ "type": "Feature", "properties": { "id": "way/456650048", "@id": "way/456650048", "addr:city": null, "addr:street": null, "amenity": null, "barrier": null, "building": "yes", "crossing": null, "footway": null, "highway": null, "junction": null, "landuse": null, "leisure": null, "man_made": null, "name": null, "oneway": null, "ref": null, "route": null, "short_name": null, "sport": null, "surface": null, "tower:type": null, "type": null, "@tainted": null, "website": null, "wikidata": null, "wikipedia": null }, "geometry": { "type": "Polygon", "coordinates": [ [ [ 2.9820035, 6.8964167 ], [ 2.9820046, 6.8962946 ], [ 2.9824686, 6.8962984 ], [ 2.9824676, 6.8964205 ], [ 2.9820035, 6.8964167 ] ] ] } },
{ "type": "Feature", "properties": { "id": "way/456650049", "@id": "way/456650049", "addr:city": null, "addr:street": null, "amenity": null, "barrier": null, "building": "yes", "crossing": null, "footway": null, "highway": null, "junction": null, "landuse": null, "leisure": null, "man_made": null, "name": "AE Block", "oneway": null, "ref": null, "route": null, "short_name": null, "sport": null, "surface": null, "tower:type": null, "type": null, "@tainted": null, "website": null, "wikidata": null, "wikipedia": null }, "geometry": { "type": "Polygon", "coordinates": [ [ [ 2.9819748, 6.8954166 ], [ 2.9819763, 6.8952801 ], [ 2.9823941, 6.8952847 ], [ 2.9823926, 6.8954213 ], [ 2.9819748, 6.8954166 ] ] ] } },
{ "type": "Feature", "properties": { "id": "way/456650050", "@id": "way/456650050", "addr:city": null, "addr:street": null, "amenity": null, "barrier": null, "building": "yes", "crossing": null, "footway": null, "highway": null, "junction": null, "landuse": null, "leisure": null, "man_made": null, "name": "AF Block", "oneway": null, "ref": null, "route": null, "short_name": null, "sport": null, "surface": null, "tower:type": null, "type": null, "@tainted": null, "website": null, "wikidata": null, "wikipedia": null }, "geometry": { "type": "Polygon", "coordinates": [ [ [ 2.9814944, 6.8952275 ], [ 2.9814967, 6.895083 ], [ 2.9821064, 6.8950925 ], [ 2.9821041, 6.895237 ], [ 2.9814944, 6.8952275 ] ] ] } },
{ "type": "Feature", "properties": { "id": "way/456650051", "@id": "way/456650051", "addr:city": null, "addr:street": null, "amenity": null, "barrier": null, "building": "yes", "crossing": null, "footway": null, "highway": null, "junction": null, "landuse": null, "leisure": null, "man_made": null, "name": "Administartive Block", "oneway": null, "ref": null, "route": null, "short_name": null, "sport": null, "surface": null, "tower:type": null, "type": null, "@tainted": null, "website": null, "wikidata": null, "wikipedia": null }, "geometry": { "type": "Polygon", "coordinates": [ [ [ 2.9830207, 6.8942997 ], [ 2.982993, 6.8939303 ], [ 2.9833498, 6.8939039 ], [ 2.9833775, 6.8942734 ], [ 2.9830207, 6.8942997 ] ] ] } },
{ "type": "Feature", "properties": { "id": "way/456650052", "@id": "way/456650052", "addr:city": null, "addr:street": null, "amenity": null, "barrier": null, "building": "yes", "crossing": null, "footway": null, "highway": null, "junction": null, "landuse": null, "leisure": null, "man_made": null, "name": "Admin", "oneway": null, "ref": null, "route": null, "short_name": null, "sport": null, "surface": null, "tower:type": null, "type": null, "@tainted": null, "website": null, "wikidata": null, "wikipedia": null }, "geometry": { "type": "Polygon", "coordinates": [ [ [ 2.9833284, 6.8936003 ], [ 2.9832665, 6.8936054 ], [ 2.9832459, 6.8933597 ], [ 2.9833078, 6.8933546 ], [ 2.9833284, 6.8936003 ] ] ] } },
{ "type": "Feature", "properties": { "id": "way/456650053", "@id": "way/456650053", "addr:city": null, "addr:street": null, "amenity": null, "barrier": null, "building": "yes", "crossing": null, "footway": null, "highway": null, "junction": null, "landuse": null, "leisure": null, "man_made": null, "name": "Admin", "oneway": null, "ref": null, "route": null, "short_name": null, "sport": null, "surface": null, "tower:type": null, "type": null, "@tainted": null, "website": null, "wikidata": null, "wikipedia": null }, "geometry": { "type": "Polygon", "coordinates": [ [ [ 2.9831739, 6.893318 ], [ 2.9831799, 6.8933803 ], [ 2.9829492, 6.8934022 ], [ 2.9829432, 6.8933399 ], [ 2.9831739, 6.893318 ] ] ] } },
{ "type": "Feature", "properties": { "id": "way/456650054", "@id": "way/456650054", "addr:city": null, "addr:street": null, "amenity": null, "barrier": null, "building": "yes", "crossing": null, "footway": null, "highway": null, "junction": null, "landuse": null, "leisure": null, "man_made": null, "name": "Admin", "oneway": null, "ref": null, "route": null, "short_name": null, "sport": null, "surface": null, "tower:type": null, "type": null, "@tainted": null, "website": null, "wikidata": null, "wikipedia": null }, "geometry": { "type": "Polygon", "coordinates": [ [ [ 2.9832035, 6.893583 ], [ 2.9832094, 6.8936456 ], [ 2.9829771, 6.893667 ], [ 2.9829712, 6.8936044 ], [ 2.9832035, 6.893583 ] ] ] } },
{ "type": "Feature", "properties": { "id": "way/456650055", "@id": "way/456650055", "addr:city": null, "addr:street": null, "amenity": null, "barrier": null, "building": "yes", "crossing": null, "footway": null, "highway": null, "junction": null, "landuse": null, "leisure": null, "man_made": null, "name": "Admin", "oneway": null, "ref": null, "route": null, "short_name": null, "sport": null, "surface": null, "tower:type": null, "type": null, "@tainted": null, "website": null, "wikidata": null, "wikipedia": null }, "geometry": { "type": "Polygon", "coordinates": [ [ [ 2.9833475, 6.8938634 ], [ 2.9832863, 6.8938688 ], [ 2.9832663, 6.8936441 ], [ 2.9833275, 6.8936387 ], [ 2.9833475, 6.8938634 ] ] ] } },
{ "type": "Feature", "properties": { "id": "way/456650056", "@id": "way/456650056", "addr:city": null, "addr:street": null, "amenity": null, "barrier": null, "building": "yes", "crossing": null, "footway": null, "highway": null, "junction": null, "landuse": null, "leisure": null, "man_made": null, "name": "Exam house", "oneway": null, "ref": null, "route": null, "short_name": null, "sport": null, "surface": null, "tower:type": null, "type": null, "@tainted": null, "website": null, "wikidata": null, "wikipedia": null }, "geometry": { "type": "Polygon", "coordinates": [ [ [ 2.9832159, 6.8944805 ], [ 2.9832085, 6.8943771 ], [ 2.9833929, 6.894364 ], [ 2.9834003, 6.8944674 ], [ 2.9832159, 6.8944805 ] ] ] } },
{ "type": "Feature", "properties": { "id": "way/456650057", "@id": "way/456650057", "addr:city": null, "addr:street": null, "amenity": null, "barrier": null, "building": "yes", "crossing": null, "footway": null, "highway": null, "junction": null, "landuse": null, "leisure": null, "man_made": null, "name": "Records & Data", "oneway": null, "ref": null, "route": null, "short_name": null, "sport": null, "surface": null, "tower:type": null, "type": null, "@tainted": null, "website": null, "wikidata": null, "wikipedia": null }, "geometry": { "type": "Polygon", "coordinates": [ [ [ 2.9820323, 6.8941317 ], [ 2.9820269, 6.8940084 ], [ 2.9822647, 6.8939982 ], [ 2.9822669, 6.8940485 ], [ 2.98227, 6.8941215 ], [ 2.9820323, 6.8941317 ] ] ] } },
{ "type": "Feature", "properties": { "id": "way/456650058", "@id": "way/456650058", "addr:city": null, "addr:street": null, "amenity": null, "barrier": null, "building": "yes", "crossing": null, "footway": null, "highway": null, "junction": null, "landuse": null, "leisure": null, "man_made": null, "name": null, "oneway": null, "ref": null, "route": null, "short_name": null, "sport": null, "surface": null, "tower:type": null, "type": null, "@tainted": null, "website": null, "wikidata": null, "wikipedia": null }, "geometry": { "type": "Polygon", "coordinates": [ [ [ 2.9821101, 6.8939898 ], [ 2.9819992, 6.8939925 ], [ 2.9819961, 6.8938656 ], [ 2.9821069, 6.8938629 ], [ 2.9821101, 6.8939898 ] ] ] } },
{ "type": "Feature", "properties": { "id": "way/456650060", "@id": "way/456650060", "addr:city": null, "addr:street": null, "amenity": null, "barrier": null, "building": "yes", "crossing": null, "footway": null, "highway": null, "junction": null, "landuse": null, "leisure": null, "man_made": null, "name": "Audit Office", "oneway": null, "ref": null, "route": null, "short_name": null, "sport": null, "surface": null, "tower:type": null, "type": null, "@tainted": null, "website": null, "wikidata": null, "wikipedia": null }, "geometry": { "type": "Polygon", "coordinates": [ [ [ 2.9820981, 6.8943391 ], [ 2.9822846, 6.8943354 ], [ 2.9822888, 6.8945459 ], [ 2.9821022, 6.8945495 ], [ 2.9820981, 6.8943391 ] ] ] } },
{ "type": "Feature", "properties": { "id": "way/456650061", "@id": "way/456650061", "addr:city": null, "addr:street": null, "amenity": null, "barrier": null, "building": "yes", "crossing": null, "footway": null, "highway": null, "junction": null, "landuse": null, "leisure": null, "man_made": null, "name": "Engineering Building", "oneway": null, "ref": null, "route": null, "short_name": null, "sport": null, "surface": null, "tower:type": null, "type": null, "@tainted": null, "website": null, "wikidata": null, "wikipedia": null }, "geometry": { "type": "Polygon", "coordinates": [ [ [ 2.9819313, 6.8958448 ], [ 2.981931, 6.8959987 ], [ 2.981657, 6.8959996 ], [ 2.9816567, 6.8959156 ], [ 2.9816048, 6.8959158 ], [ 2.981605, 6.8960073 ], [ 2.9813796, 6.8960079 ], [ 2.9813794, 6.8958923 ], [ 2.9813561, 6.8958923 ], [ 2.981356, 6.8957564 ], [ 2.9813719, 6.8957564 ], [ 2.9813723, 6.8956444 ], [ 2.9816191, 6.8956452 ], [ 2.9816187, 6.8957617 ], [ 2.9816887, 6.8957619 ], [ 2.9816891, 6.8956797 ], [ 2.9819412, 6.8956807 ], [ 2.9819405, 6.895829 ], [ 2.9819157, 6.8958289 ], [ 2.9819156, 6.8958447 ], [ 2.9819313, 6.8958448 ] ] ] } },
{ "type": "Feature", "properties": { "id": "way/456650062", "@id": "way/456650062", "addr:city": null, "addr:street": null, "amenity": null, "barrier": null, "building": "yes", "crossing": null, "footway": null, "highway": null, "junction": null, "landuse": null, "leisure": null, "man_made": null, "name": "BA Block", "oneway": null, "ref": null, "route": null, "short_name": null, "sport": null, "surface": null, "tower:type": null, "type": null, "@tainted": null, "website": null, "wikidata": null, "wikipedia": null }, "geometry": { "type": "Polygon", "coordinates": [ [ [ 2.9852403, 6.8950527 ], [ 2.9852395, 6.8949429 ], [ 2.9857472, 6.8949392 ], [ 2.985748, 6.8950491 ], [ 2.9852403, 6.8950527 ] ] ] } },
{ "type": "Feature", "properties": { "id": "way/456650063", "@id": "way/456650063", "addr:city": null, "addr:street": null, "amenity": null, "barrier": null, "building": "yes", "crossing": null, "footway": null, "highway": null, "junction": null, "landuse": null, "leisure": null, "man_made": null, "name": "BB Block", "oneway": null, "ref": null, "route": null, "short_name": null, "sport": null, "surface": null, "tower:type": null, "type": null, "@tainted": null, "website": null, "wikidata": null, "wikipedia": null }, "geometry": { "type": "Polygon", "coordinates": [ [ [ 2.9858192, 6.8955213 ], [ 2.9858114, 6.89501 ], [ 2.9859326, 6.8950082 ], [ 2.9859404, 6.8955194 ], [ 2.9858192, 6.8955213 ] ] ] } },
{ "type": "Feature", "properties": { "id": "way/456650064", "@id": "way/456650064", "addr:city": null, "addr:street": null, "amenity": null, "barrier": null, "building": "yes", "crossing": null, "footway": null, "highway": null, "junction": null, "landuse": null, "leisure": null, "man_made": null, "name": "PTDF Building", "oneway": null, "ref": null, "route": null, "short_name": null, "sport": null, "surface": null, "tower:type": null, "type": null, "@tainted": null, "website": null, "wikidata": null, "wikipedia": null }, "geometry": { "type": "Polygon", "coordinates": [ [ [ 2.9852414, 6.8947908 ], [ 2.9852381, 6.8945712 ], [ 2.9854442, 6.8945681 ], [ 2.9854475, 6.8947878 ], [ 2.9852414, 6.8947908 ] ] ] } },
{ "type": "Feature", "properties": { "id": "way/456650065", "@id": "way/456650065", "addr:city": null, "addr:street": null, "amenity": null, "barrier": null, "building": "yes", "crossing": null, "footway": null, "highway": null, "junction": null, "landuse": null, "leisure": null, "man_made": null, "name": "BC Block", "oneway": null, "ref": null, "route": null, "short_name": null, "sport": null, "surface": null, "tower:type": null, "type": null, "@tainted": null, "website": null, "wikidata": null, "wikipedia": null }, "geometry": { "type": "Polygon", "coordinates": [ [ [ 2.9852306, 6.8942712 ], [ 2.9852313, 6.8941511 ], [ 2.9858494, 6.8941547 ], [ 2.9858487, 6.8942748 ], [ 2.9852306, 6.8942712 ] ] ] } },
{ "type": "Feature", "properties": { "id": "way/456650066", "@id": "way/456650066", "addr:city": null, "addr:street": null, "amenity": null, "barrier": null, "building": "yes", "crossing": null, "footway": null, "highway": null, "junction": null, "landuse": null, "leisure": null, "man_made": null, "name": "BD Block", "oneway": null, "ref": null, "route": null, "short_name": null, "sport": null, "surface": null, "tower:type": null, "type": null, "@tainted": null, "website": null, "wikidata": null, "wikipedia": null }, "geometry": { "type": "Polygon", "coordinates": [ [ [ 2.9858105, 6.8940756 ], [ 2.9858135, 6.8934801 ], [ 2.985932, 6.8934807 ], [ 2.9859291, 6.8940762 ], [ 2.9858105, 6.8940756 ] ] ] } },
{ "type": "Feature", "properties": { "id": "way/456650067", "@id": "way/456650067", "addr:city": null, "addr:street": null, "amenity": null, "barrier": null, "building": "yes", "crossing": null, "footway": null, "highway": null, "junction": null, "landuse": null, "leisure": null, "man_made": null, "name": "Multipurpose hall", "oneway": null, "ref": null, "route": null, "short_name": null, "sport": null, "surface": null, "tower:type": null, "type": null, "@tainted": null, "website": null, "wikidata": null, "wikipedia": null }, "geometry": { "type": "Polygon", "coordinates": [ [ [ 2.9848308, 6.8928263 ], [ 2.9848257, 6.8932115 ], [ 2.9845953, 6.8932085 ], [ 2.9846003, 6.8928258 ], [ 2.9846655, 6.8928267 ], [ 2.984666, 6.8927874 ], [ 2.9847624, 6.8927887 ], [ 2.9847619, 6.8928254 ], [ 2.9848308, 6.8928263 ] ] ] } },
{ "type": "Feature", "properties": { "id": "way/456651732", "@id": "way/456651732", "addr:city": null, "addr:street": null, "amenity": null, "barrier": null, "building": "yes", "crossing": null, "footway": null, "highway": null, "junction": null, "landuse": null, "leisure": null, "man_made": null, "name": "UBA Bank", "oneway": null, "ref": null, "route": null, "short_name": null, "sport": null, "surface": null, "tower:type": null, "type": null, "@tainted": null, "website": null, "wikidata": null, "wikipedia": null }, "geometry": { "type": "Polygon", "coordinates": [ [ [ 2.9895199, 6.892122 ], [ 2.9895172, 6.8919763 ], [ 2.9896118, 6.8919745 ], [ 2.9896145, 6.8921202 ], [ 2.9895199, 6.892122 ] ] ] } },
{ "type": "Feature", "properties": { "id": "way/456651733", "@id": "way/456651733", "addr:city": null, "addr:street": null, "amenity": null, "barrier": null, "building": "yes", "crossing": null, "footway": null, "highway": null, "junction": null, "landuse": null, "leisure": null, "man_made": null, "name": "Civic center", "oneway": null, "ref": null, "route": null, "short_name": null, "sport": null, "surface": null, "tower:type": null, "type": null, "@tainted": null, "website": null, "wikidata": null, "wikipedia": null }, "geometry": { "type": "Polygon", "coordinates": [ [ [ 2.9897866, 6.892992 ], [ 2.9895455, 6.8927398 ], [ 2.9897356, 6.8925443 ], [ 2.9897582, 6.8925305 ], [ 2.9897954, 6.8925242 ], [ 2.9898164, 6.8925258 ], [ 2.9898362, 6.892534 ], [ 2.9898627, 6.8925528 ], [ 2.9900379, 6.8927268 ], [ 2.9897866, 6.892992 ] ] ] } },
{ "type": "Feature", "properties": { "id": "way/456651734", "@id": "way/456651734", "addr:city": null, "addr:street": null, "amenity": null, "barrier": null, "building": "yes", "crossing": null, "footway": null, "highway": null, "junction": null, "landuse": null, "leisure": null, "man_made": null, "name": "Kings' palace", "oneway": null, "ref": null, "route": null, "short_name": null, "sport": null, "surface": null, "tower:type": null, "type": null, "@tainted": null, "website": null, "wikidata": null, "wikipedia": null }, "geometry": { "type": "Polygon", "coordinates": [ [ [ 2.9906664, 6.8915106 ], [ 2.9904794, 6.8915098 ], [ 2.9904587, 6.8915094 ], [ 2.9904591, 6.8914869 ], [ 2.9904599, 6.8914019 ], [ 2.9907112, 6.8914037 ], [ 2.9907114, 6.891374 ], [ 2.9907822, 6.8913745 ], [ 2.990782, 6.8913941 ], [ 2.9909874, 6.8913956 ], [ 2.9909865, 6.8915171 ], [ 2.9907673, 6.8915155 ], [ 2.9907669, 6.8915786 ], [ 2.9906659, 6.8915778 ], [ 2.9906664, 6.8915106 ] ] ] } },
{ "type": "Feature", "properties": { "id": "way/456651735", "@id": "way/456651735", "addr:city": null, "addr:street": null, "amenity": null, "barrier": null, "building": "yes", "crossing": null, "footway": null, "highway": null, "junction": null, "landuse": null, "leisure": null, "man_made": null, "name": null, "oneway": null, "ref": null, "route": null, "short_name": null, "sport": null, "surface": null, "tower:type": null, "type": null, "@tainted": null, "website": null, "wikidata": null, "wikipedia": null }, "geometry": { "type": "Polygon", "coordinates": [ [ [ 2.9903926, 6.8916752 ], [ 2.9903959, 6.8914858 ], [ 2.9904591, 6.8914869 ], [ 2.9904587, 6.8915094 ], [ 2.9904794, 6.8915098 ], [ 2.9904765, 6.8916767 ], [ 2.9903926, 6.8916752 ] ] ] } },
{ "type": "Feature", "properties": { "id": "way/456651736", "@id": "way/456651736", "addr:city": null, "addr:street": null, "amenity": null, "barrier": null, "building": "yes", "crossing": null, "footway": null, "highway": null, "junction": null, "landuse": null, "leisure": null, "man_made": null, "name": null, "oneway": null, "ref": null, "route": null, "short_name": null, "sport": null, "surface": null, "tower:type": null, "type": null, "@tainted": null, "website": null, "wikidata": null, "wikipedia": null }, "geometry": { "type": "Polygon", "coordinates": [ [ [ 2.9904226, 6.8923657 ], [ 2.9903862, 6.8923666 ], [ 2.9903787, 6.8920413 ], [ 2.9904388, 6.89204 ], [ 2.9904372, 6.8919709 ], [ 2.990513, 6.8919692 ], [ 2.9905144, 6.8920298 ], [ 2.9905662, 6.8920286 ], [ 2.9905738, 6.8923583 ], [ 2.99052, 6.8923595 ], [ 2.9905209, 6.8923973 ], [ 2.9904234, 6.8923995 ], [ 2.9904226, 6.8923657 ] ] ] } },
{ "type": "Feature", "properties": { "id": "way/456651737", "@id": "way/456651737", "addr:city": null, "addr:street": null, "amenity": null, "barrier": null, "building": "yes", "crossing": null, "footway": null, "highway": null, "junction": null, "landuse": null, "leisure": null, "man_made": null, "name": null, "oneway": null, "ref": null, "route": null, "short_name": null, "sport": null, "surface": null, "tower:type": null, "type": null, "@tainted": null, "website": null, "wikidata": null, "wikipedia": null }, "geometry": { "type": "Polygon", "coordinates": [ [ [ 2.990758, 6.8923421 ], [ 2.9907027, 6.8923436 ], [ 2.9906935, 6.8920082 ], [ 2.9907488, 6.8920067 ], [ 2.9907473, 6.8919509 ], [ 2.9908257, 6.8919488 ], [ 2.9908271, 6.8919964 ], [ 2.9908908, 6.8919946 ], [ 2.9909, 6.8923296 ], [ 2.9908298, 6.8923315 ], [ 2.990831, 6.8923752 ], [ 2.990759, 6.8923772 ], [ 2.990758, 6.8923421 ] ] ] } },
{ "type": "Feature", "properties": { "id": "way/456651738", "@id": "way/456651738", "addr:city": null, "addr:street": null, "amenity": null, "barrier": null, "building": "yes", "crossing": null, "footway": null, "highway": null, "junction": null, "landuse": null, "leisure": null, "man_made": null, "name": null, "oneway": null, "ref": null, "route": null, "short_name": null, "sport": null, "surface": null, "tower:type": null, "type": null, "@tainted": null, "website": null, "wikidata": null, "wikipedia": null }, "geometry": { "type": "Polygon", "coordinates": [ [ [ 2.9912218, 6.8907139 ], [ 2.99116, 6.8907096 ], [ 2.991184, 6.8903739 ], [ 2.9912447, 6.8903782 ], [ 2.9912477, 6.8903371 ], [ 2.9913162, 6.8903419 ], [ 2.9913139, 6.890375 ], [ 2.9913786, 6.8903796 ], [ 2.991354, 6.8907251 ], [ 2.9912885, 6.8907205 ], [ 2.9912858, 6.8907575 ], [ 2.991219, 6.8907528 ], [ 2.9912218, 6.8907139 ] ] ] } },
{ "type": "Feature", "properties": { "id": "way/456651739", "@id": "way/456651739", "addr:city": null, "addr:street": null, "amenity": null, "barrier": null, "building": null, "crossing": null, "footway": null, "highway": null, "junction": null, "landuse": null, "leisure": "pitch", "man_made": null, "name": "Long tennis Court", "oneway": null, "ref": null, "route": null, "short_name": null, "sport": "tennis", "surface": null, "tower:type": null, "type": null, "@tainted": null, "website": null, "wikidata": null, "wikipedia": null }, "geometry": { "type": "Polygon", "coordinates": [ [ [ 2.9914449, 6.8901527 ], [ 2.9915073, 6.8898239 ], [ 2.9916688, 6.8898541 ], [ 2.9916063, 6.8901829 ], [ 2.9914449, 6.8901527 ] ] ] } },
{ "type": "Feature", "properties": { "id": "way/1173072502", "@id": "way/1173072502", "addr:city": null, "addr:street": null, "amenity": null, "barrier": null, "building": "yes", "crossing": null, "footway": null, "highway": null, "junction": null, "landuse": null, "leisure": null, "man_made": null, "name": null, "oneway": null, "ref": null, "route": null, "short_name": null, "sport": null, "surface": null, "tower:type": null, "type": null, "@tainted": null, "website": null, "wikidata": null, "wikipedia": null }, "geometry": { "type": "Polygon", "coordinates": [ [ [ 2.9814388, 6.8968581 ], [ 2.9816731, 6.8968451 ], [ 2.9816755, 6.8969617 ], [ 2.9816109, 6.8969641 ], [ 2.9816168, 6.8970334 ], [ 2.9816738, 6.8970297 ], [ 2.9816763, 6.8970943 ], [ 2.9817522, 6.8970937 ], [ 2.9817528, 6.8970416 ], [ 2.9818558, 6.8970416 ], [ 2.9818547, 6.897267 ], [ 2.9817558, 6.8972683 ], [ 2.9817537, 6.8972157 ], [ 2.9816382, 6.8972232 ], [ 2.9816332, 6.8971797 ], [ 2.981604, 6.8971755 ], [ 2.9815568, 6.8972253 ], [ 2.981495, 6.8971605 ], [ 2.9815314, 6.8971192 ], [ 2.9815381, 6.897084 ], [ 2.981496, 6.897084 ], [ 2.981495, 6.8969673 ], [ 2.9814417, 6.8969695 ], [ 2.9814393, 6.8969152 ], [ 2.9814388, 6.8968581 ] ] ] } }
]
}
