{
"type": "FeatureCollection",
"name": "part",
"crs": { "type": "name", "properties": { "name": "urn:ogc:def:crs:OGC:1.3:CRS84" } },
"features": [
{ "type": "Feature", "properties": { "id": "way/550428753", "@id": "way/550428753", "amenity": "university", "name": "Federal Polytechnic Ilaro", "short_name": "FPI", "website": "https://federalpolyilaro.edu.ng/", "wikidata": "Q18354913", "wikipedia": "en:Federal Polytechnic, Ilaro" }, "geometry": { "type": "Polygon", "coordinates": [ [ [ 2.9805371, 6.8966768 ], [ 2.9805748, 6.8942931 ], [ 2.9800364, 6.8942626 ], [ 2.9800517, 6.8934302 ], [ 2.9804517, 6.8930407 ], [ 2.9809671, 6.8925062 ], [ 2.9814518, 6.8923611 ], [ 2.985247, 6.8923811 ], [ 2.985256, 6.8931748 ], [ 2.9862281, 6.8931658 ], [ 2.9862553, 6.8953484 ], [ 2.9852288, 6.8962051 ], [ 2.9844475, 6.8968816 ], [ 2.9835118, 6.8968545 ], [ 2.9830031, 6.8973956 ], [ 2.9827941, 6.8975309 ], [ 2.9823217, 6.8976842 ], [ 2.9819402, 6.8977384 ], [ 2.981604, 6.8977023 ], [ 2.9812406, 6.8975399 ], [ 2.9809409, 6.8973505 ], [ 2.9807137, 6.8971431 ], [ 2.9805684, 6.8968816 ], [ 2.9805371, 6.8966768 ] ] ] } }
]
}
